{
"type": "FeatureCollection",
"name": "mcpoints",
"crs": { "type": "name", "properties": { "name": "urn:ogc:def:crs:OGC:1.3:CRS84" } },
"features": [
{ "type": "Feature", "properties": { "id": "way/32332581", "@id": "way/32332581", "addr:city": null, "addr:country": null, "addr:housenumber": null, "addr:postcode": null, "addr:state": null, "addr:street": null, "addr:unit": null, "amenity": "fast_food", "brand": "McDonald's", "brand:website": null, "brand:wikidata": "Q38076", "brand:wikipedia": "en:McDonald's", "building": "yes", "building:colour": null, "building:levels": null, "building:part": null, "building:use": null, "check_date": null, "cuisine": "burger", "delivery": null, "dog": null, "drive_through": "yes", "ele": null, "height": null, "indoor_seating": null, "internet_access": null, "internet_access:fee": null, "internet_access:ssid": null, "kids_area": null, "name": "McDonald's", "name:en": null, "note": null, "opening_hours": null, "opening_hours:drive_through": null, "opening_hours:url": null, "operator": null, "outdoor_seating": null, "phone": null, "ref": null, "roof:colour": null, "roof:shape": null, "smoking": null, "source": null, "takeaway": "yes", "@geometry": "center", "big_mac": "4.50" }, "geometry": { "type": "Point", "coordinates": [ -122.9869039, 44.9900739 ] } },
{ "type": "Feature", "properties": { "id": "way/36805554", "@id": "way/36805554", "addr:city": "Portland", "addr:country": null, "addr:housenumber": "1520", "addr:postcode": "97232", "addr:state": "OR", "addr:street": "Northeast Grand Avenue", "addr:unit": null, "amenity": "fast_food", "brand": "McDonald's", "brand:website": null, "brand:wikidata": "Q38076", "brand:wikipedia": "en:McDonald's", "building": "yes", "building:colour": null, "building:levels": null, "building:part": null, "building:use": null, "check_date": null, "cuisine": "burger", "delivery": null, "dog": null, "drive_through": null, "ele": null, "height": null, "indoor_seating": null, "internet_access": null, "internet_access:fee": null, "internet_access:ssid": null, "kids_area": null, "name": "McDonald's", "name:en": null, "note": null, "opening_hours": null, "opening_hours:drive_through": null, "opening_hours:url": null, "operator": null, "outdoor_seating": null, "phone": null, "ref": null, "roof:colour": null, "roof:shape": null, "smoking": null, "source": null, "takeaway": "yes", "@geometry": "center", "big_mac": "5.15" }, "geometry": { "type": "Point", "coordinates": [ -122.6604109, 45.5340571 ] } },
{ "type": "Feature", "properties": { "id": "way/39379212", "@id": "way/39379212", "addr:city": "Portland", "addr:country": null, "addr:housenumber": "2010", "addr:postcode": "97212", "addr:state": "OR", "addr:street": "Northeast César E. Chávez Boulevard", "addr:unit": null, "amenity": "fast_food", "brand": "McDonald's", "brand:website": "https://www.mcdonalds.com/", "brand:wikidata": "Q38076", "brand:wikipedia": "en:McDonald's", "building": "yes", "building:colour": null, "building:levels": null, "building:part": null, "building:use": null, "check_date": null, "cuisine": "burger", "delivery": "no", "dog": null, "drive_through": "yes", "ele": null, "height": null, "indoor_seating": null, "internet_access": null, "internet_access:fee": null, "internet_access:ssid": null, "kids_area": null, "name": "McDonald's", "name:en": null, "note": null, "opening_hours": null, "opening_hours:drive_through": null, "opening_hours:url": null, "operator": null, "outdoor_seating": null, "phone": "+1-503-282-1234", "ref": "7789", "roof:colour": null, "roof:shape": null, "smoking": "no", "source": null, "takeaway": "yes", "@geometry": "center", "big_mac": "5.15" }, "geometry": { "type": "Point", "coordinates": [ -122.622483, 45.5372631 ] } },
{ "type": "Feature", "properties": { "id": "way/39872923", "@id": "way/39872923", "addr:city": null, "addr:country": null, "addr:housenumber": null, "addr:postcode": null, "addr:state": null, "addr:street": null, "addr:unit": null, "amenity": "fast_food", "brand": "McDonald's", "brand:website": null, "brand:wikidata": "Q38076", "brand:wikipedia": "en:McDonald's", "building": "yes", "building:colour": null, "building:levels": null, "building:part": null, "building:use": null, "check_date": null, "cuisine": "burger", "delivery": null, "dog": null, "drive_through": null, "ele": null, "height": null, "indoor_seating": null, "internet_access": null, "internet_access:fee": null, "internet_access:ssid": null, "kids_area": null, "name": "McDonald's", "name:en": null, "note": null, "opening_hours": null, "opening_hours:drive_through": null, "opening_hours:url": null, "operator": null, "outdoor_seating": null, "phone": null, "ref": null, "roof:colour": null, "roof:shape": null, "smoking": null, "source": null, "takeaway": "yes", "@geometry": "center", "big_mac": "5.50" }, "geometry": { "type": "Point", "coordinates": [ -123.205638, 44.850966 ] } },
{ "type": "Feature", "properties": { "id": "way/43926133", "@id": "way/43926133", "addr:city": "Troutdale", "addr:country": null, "addr:housenumber": "2555", "addr:postcode": "97060", "addr:state": "OR", "addr:street": "Southwest Cherry Park Road", "addr:unit": null, "amenity": "fast_food", "brand": "McDonald's", "brand:website": "https://www.mcdonalds.com/", "brand:wikidata": "Q38076", "brand:wikipedia": "en:McDonald's", "building": "yes", "building:colour": null, "building:levels": null, "building:part": null, "building:use": null, "check_date": null, "cuisine": "burger", "delivery": null, "dog": null, "drive_through": "yes", "ele": null, "height": null, "indoor_seating": null, "internet_access": "wlan", "internet_access:fee": "no", "internet_access:ssid": null, "kids_area": null, "name": "McDonald's", "name:en": null, "note": null, "opening_hours": "24/7", "opening_hours:drive_through": null, "opening_hours:url": null, "operator": null, "outdoor_seating": null, "phone": "+1-503-674-0208", "ref": null, "roof:colour": null, "roof:shape": null, "smoking": null, "source": null, "takeaway": "yes", "@geometry": "center", "big_mac": "5.25" }, "geometry": { "type": "Point", "coordinates": [ -122.4125538, 45.5285468 ] } },
{ "type": "Feature", "properties": { "id": "way/53871664", "@id": "way/53871664", "addr:city": "Lake Oswego", "addr:country": null, "addr:housenumber": "16044", "addr:postcode": "97035", "addr:state": null, "addr:street": "Boones Ferry Road", "addr:unit": null, "amenity": "fast_food", "brand": "McDonald's", "brand:website": null, "brand:wikidata": "Q38076", "brand:wikipedia": "en:McDonald's", "building": "yes", "building:colour": null, "building:levels": null, "building:part": null, "building:use": null, "check_date": null, "cuisine": "burger", "delivery": null, "dog": null, "drive_through": "yes", "ele": null, "height": null, "indoor_seating": null, "internet_access": "wlan", "internet_access:fee": null, "internet_access:ssid": null, "kids_area": null, "name": "McDonald's", "name:en": null, "note": null, "opening_hours": null, "opening_hours:drive_through": null, "opening_hours:url": null, "operator": null, "outdoor_seating": null, "phone": null, "ref": null, "roof:colour": null, "roof:shape": null, "smoking": null, "source": null, "takeaway": "yes", "@geometry": "center", "big_mac": "5.45" }, "geometry": { "type": "Point", "coordinates": [ -122.7206374, 45.4092343 ] } },
{ "type": "Feature", "properties": { "id": "way/59662572", "@id": "way/59662572", "addr:city": "Troutdale", "addr:country": "US", "addr:housenumber": "1002", "addr:postcode": "97060", "addr:state": "OR", "addr:street": "Northwest Frontage Road", "addr:unit": null, "amenity": "fast_food", "brand": "McDonald's", "brand:website": "https://www.mcdonalds.com/", "brand:wikidata": "Q38076", "brand:wikipedia": "en:McDonald's", "building": "yes", "building:colour": null, "building:levels": null, "building:part": null, "building:use": null, "check_date": null, "cuisine": "burger", "delivery": null, "dog": null, "drive_through": "08:00-23:00", "ele": null, "height": null, "indoor_seating": null, "internet_access": null, "internet_access:fee": null, "internet_access:ssid": null, "kids_area": null, "name": "McDonald's", "name:en": null, "note": null, "opening_hours": "06:00-21:00", "opening_hours:drive_through": null, "opening_hours:url": null, "operator": null, "outdoor_seating": null, "phone": "+1-503-665-9455", "ref": null, "roof:colour": null, "roof:shape": null, "smoking": null, "source": null, "takeaway": "yes", "@geometry": "center", "big_mac": "5.50" }, "geometry": { "type": "Point", "coordinates": [ -122.3975675, 45.5439091 ] } },
{ "type": "Feature", "properties": { "id": "way/97291282", "@id": "way/97291282", "addr:city": "Beaverton", "addr:country": null, "addr:housenumber": "3519", "addr:postcode": "97005", "addr:state": "OR", "addr:street": "Southwest Cedar Hills Boulevard", "addr:unit": null, "amenity": "fast_food", "brand": "McDonald's", "brand:website": null, "brand:wikidata": "Q38076", "brand:wikipedia": "en:McDonald's", "building": "retail", "building:colour": null, "building:levels": null, "building:part": null, "building:use": null, "check_date": null, "cuisine": "burger", "delivery": null, "dog": null, "drive_through": "yes", "ele": null, "height": null, "indoor_seating": null, "internet_access": null, "internet_access:fee": null, "internet_access:ssid": null, "kids_area": null, "name": "McDonald's", "name:en": null, "note": null, "opening_hours": "Mo-Su 05:00-24:00", "opening_hours:drive_through": "24/7", "opening_hours:url": null, "operator": null, "outdoor_seating": null, "phone": "+1-503-430-5042", "ref": "2160", "roof:colour": null, "roof:shape": null, "smoking": null, "source": null, "takeaway": "yes", "@geometry": "center", "big_mac": "5.45" }, "geometry": { "type": "Point", "coordinates": [ -122.8106847, 45.4939509 ] } },
{ "type": "Feature", "properties": { "id": "way/97654903", "@id": "way/97654903", "addr:city": "Aloha", "addr:country": null, "addr:housenumber": "17555", "addr:postcode": "97007", "addr:state": "OR", "addr:street": "Southwest Farmington Road", "addr:unit": null, "amenity": "fast_food", "brand": "McDonald's", "brand:website": "https://www.mcdonalds.com/", "brand:wikidata": "Q38076", "brand:wikipedia": "en:McDonald's", "building": "yes", "building:colour": null, "building:levels": null, "building:part": null, "building:use": null, "check_date": null, "cuisine": "burger", "delivery": null, "dog": null, "drive_through": "yes", "ele": null, "height": null, "indoor_seating": null, "internet_access": "wlan", "internet_access:fee": "no", "internet_access:ssid": null, "kids_area": null, "name": "McDonald's", "name:en": null, "note": null, "opening_hours": "24/7", "opening_hours:drive_through": null, "opening_hours:url": null, "operator": null, "outdoor_seating": null, "phone": "+1-503-352-4170", "ref": null, "roof:colour": null, "roof:shape": null, "smoking": null, "source": null, "takeaway": "yes", "@geometry": "center", "big_mac": "5.45" }, "geometry": { "type": "Point", "coordinates": [ -122.8583426, 45.4797227 ] } },
{ "type": "Feature", "properties": { "id": "way/98586071", "@id": "way/98586071", "addr:city": "Beaverton", "addr:country": null, "addr:housenumber": "15975", "addr:postcode": "97006", "addr:state": null, "addr:street": "Southwest Regatta Lane", "addr:unit": null, "amenity": "fast_food", "brand": "McDonald's", "brand:website": null, "brand:wikidata": "Q38076", "brand:wikipedia": "en:McDonald's", "building": "yes", "building:colour": null, "building:levels": null, "building:part": null, "building:use": null, "check_date": null, "cuisine": "burger", "delivery": null, "dog": null, "drive_through": null, "ele": null, "height": null, "indoor_seating": null, "internet_access": null, "internet_access:fee": null, "internet_access:ssid": null, "kids_area": null, "name": "McDonald's", "name:en": null, "note": null, "opening_hours": null, "opening_hours:drive_through": null, "opening_hours:url": null, "operator": null, "outdoor_seating": null, "phone": null, "ref": null, "roof:colour": null, "roof:shape": null, "smoking": null, "source": null, "takeaway": "yes", "@geometry": "center", "big_mac": "5.45" }, "geometry": { "type": "Point", "coordinates": [ -122.8414662, 45.5170307 ] } },
{ "type": "Feature", "properties": { "id": "way/107656569", "@id": "way/107656569", "addr:city": "Hillsboro", "addr:country": "US", "addr:housenumber": "1215", "addr:postcode": "97124", "addr:state": "OR", "addr:street": "Northeast 48th Avenue", "addr:unit": null, "amenity": "fast_food", "brand": "McDonald's", "brand:website": "https://www.mcdonalds.com/", "brand:wikidata": "Q38076", "brand:wikipedia": "en:McDonald's", "building": "retail", "building:colour": null, "building:levels": null, "building:part": null, "building:use": null, "check_date": null, "cuisine": "burger", "delivery": null, "dog": null, "drive_through": null, "ele": null, "height": null, "indoor_seating": null, "internet_access": null, "internet_access:fee": null, "internet_access:ssid": null, "kids_area": null, "name": "McDonald's", "name:en": null, "note": null, "opening_hours": null, "opening_hours:drive_through": null, "opening_hours:url": null, "operator": null, "outdoor_seating": null, "phone": null, "ref": null, "roof:colour": null, "roof:shape": null, "smoking": null, "source": null, "takeaway": "yes", "@geometry": "center", "big_mac": "5.45" }, "geometry": { "type": "Point", "coordinates": [ -122.9345463, 45.5338619 ] } },
{ "type": "Feature", "properties": { "id": "way/108326972", "@id": "way/108326972", "addr:city": "Hillsboro", "addr:country": null, "addr:housenumber": "2435", "addr:postcode": "97006", "addr:state": "OR", "addr:street": "Northwest Town Center Drive", "addr:unit": null, "amenity": "fast_food", "brand": "McDonald's", "brand:website": "https://www.mcdonalds.com/", "brand:wikidata": "Q38076", "brand:wikipedia": "en:McDonald's", "building": "yes", "building:colour": null, "building:levels": null, "building:part": null, "building:use": null, "check_date": null, "cuisine": "burger", "delivery": null, "dog": null, "drive_through": "yes", "ele": null, "height": null, "indoor_seating": null, "internet_access": null, "internet_access:fee": null, "internet_access:ssid": null, "kids_area": null, "name": "McDonald's", "name:en": null, "note": null, "opening_hours": null, "opening_hours:drive_through": null, "opening_hours:url": null, "operator": null, "outdoor_seating": null, "phone": null, "ref": null, "roof:colour": null, "roof:shape": null, "smoking": null, "source": null, "takeaway": "yes", "@geometry": "center", "big_mac": "5.45" }, "geometry": { "type": "Point", "coordinates": [ -122.867093, 45.537158 ] } },
{ "type": "Feature", "properties": { "id": "way/111707475", "@id": "way/111707475", "addr:city": "Wilsonville", "addr:country": null, "addr:housenumber": "29682", "addr:postcode": "97070", "addr:state": "OR", "addr:street": "Southwest Town Center Loop West", "addr:unit": null, "amenity": "fast_food", "brand": "McDonald's", "brand:website": "https://www.mcdonalds.com/", "brand:wikidata": "Q38076", "brand:wikipedia": "en:McDonald's", "building": "yes", "building:colour": null, "building:levels": null, "building:part": null, "building:use": null, "check_date": null, "cuisine": "burger", "delivery": null, "dog": null, "drive_through": "24/7", "ele": "53.9", "height": "4.7", "indoor_seating": null, "internet_access": "wlan", "internet_access:fee": "no", "internet_access:ssid": null, "kids_area": null, "name": "McDonald's", "name:en": null, "note": null, "opening_hours": "05:00-24:00", "opening_hours:drive_through": null, "opening_hours:url": null, "operator": null, "outdoor_seating": "yes", "phone": "+1-503-685-9465", "ref": null, "roof:colour": null, "roof:shape": null, "smoking": null, "source": null, "takeaway": "yes", "@geometry": "center", "big_mac": "4.99" }, "geometry": { "type": "Point", "coordinates": [ -122.7666147, 45.3054726 ] } },
{ "type": "Feature", "properties": { "id": "way/113700393", "@id": "way/113700393", "addr:city": "Tigard", "addr:country": null, "addr:housenumber": "11201", "addr:postcode": "97223", "addr:state": "OR", "addr:street": "Southwest 72nd Avenue", "addr:unit": null, "amenity": "fast_food", "brand": "McDonald's", "brand:website": "https://www.mcdonalds.com/", "brand:wikidata": "Q38076", "brand:wikipedia": "en:McDonald's", "building": "yes", "building:colour": null, "building:levels": null, "building:part": null, "building:use": null, "check_date": null, "cuisine": "burger", "delivery": null, "dog": null, "drive_through": "yes", "ele": null, "height": null, "indoor_seating": null, "internet_access": null, "internet_access:fee": null, "internet_access:ssid": null, "kids_area": null, "name": "McDonald's", "name:en": null, "note": null, "opening_hours": null, "opening_hours:drive_through": null, "opening_hours:url": null, "operator": null, "outdoor_seating": null, "phone": null, "ref": null, "roof:colour": null, "roof:shape": null, "smoking": null, "source": null, "takeaway": "yes", "@geometry": "center", "big_mac": "5.45" }, "geometry": { "type": "Point", "coordinates": [ -122.7517433, 45.4392553 ] } },
{ "type": "Feature", "properties": { "id": "way/115842677", "@id": "way/115842677", "addr:city": "Portland", "addr:country": null, "addr:housenumber": "5613", "addr:postcode": "97266", "addr:state": "OR", "addr:street": "Southeast 82nd Avenue", "addr:unit": null, "amenity": "fast_food", "brand": "McDonald's", "brand:website": "https://www.mcdonalds.com/", "brand:wikidata": "Q38076", "brand:wikipedia": "en:McDonald's", "building": "yes", "building:colour": null, "building:levels": null, "building:part": null, "building:use": null, "check_date": null, "cuisine": "burger", "delivery": null, "dog": null, "drive_through": "24/7", "ele": null, "height": null, "indoor_seating": null, "internet_access": "wlan", "internet_access:fee": "no", "internet_access:ssid": null, "kids_area": null, "name": "McDonald's", "name:en": null, "note": null, "opening_hours": "05:00-22:00", "opening_hours:drive_through": null, "opening_hours:url": null, "operator": null, "outdoor_seating": null, "phone": "+1-503-777-9007", "ref": null, "roof:colour": null, "roof:shape": null, "smoking": null, "source": null, "takeaway": "yes", "@geometry": "center", "big_mac": "4.79" }, "geometry": { "type": "Point", "coordinates": [ -122.5795925, 45.4820023 ] } },
{ "type": "Feature", "properties": { "id": "way/117449341", "@id": "way/117449341", "addr:city": "Portland", "addr:country": null, "addr:housenumber": "10050", "addr:postcode": "97219", "addr:state": "OR", "addr:street": "Southwest Barbur Boulevard", "addr:unit": null, "amenity": "fast_food", "brand": "McDonald's", "brand:website": "https://www.mcdonalds.com/", "brand:wikidata": "Q38076", "brand:wikipedia": "en:McDonald's", "building": "yes", "building:colour": null, "building:levels": null, "building:part": null, "building:use": null, "check_date": null, "cuisine": "burger", "delivery": null, "dog": null, "drive_through": "24/7", "ele": null, "height": null, "indoor_seating": null, "internet_access": "wlan", "internet_access:fee": "no", "internet_access:ssid": null, "kids_area": null, "name": "McDonald's", "name:en": null, "note": null, "opening_hours": "05:00-24:00", "opening_hours:drive_through": null, "opening_hours:url": null, "operator": null, "outdoor_seating": null, "phone": "+1-503-246-6711", "ref": null, "roof:colour": null, "roof:shape": null, "smoking": null, "source": null, "takeaway": "yes", "@geometry": "center", "big_mac": "5.45" }, "geometry": { "type": "Point", "coordinates": [ -122.7225128, 45.452628 ] } },
{ "type": "Feature", "properties": { "id": "way/119407752", "@id": "way/119407752", "addr:city": "Seaside", "addr:country": null, "addr:housenumber": "225", "addr:postcode": "97138", "addr:state": "OR", "addr:street": "South Roosevelt Drive", "addr:unit": null, "amenity": "fast_food", "brand": "McDonald's", "brand:website": "https://www.mcdonalds.com/", "brand:wikidata": "Q38076", "brand:wikipedia": "en:McDonald's", "building": "yes", "building:colour": null, "building:levels": null, "building:part": null, "building:use": null, "check_date": null, "cuisine": "burger", "delivery": null, "dog": null, "drive_through": "yes", "ele": null, "height": null, "indoor_seating": "yes", "internet_access": "wlan", "internet_access:fee": null, "internet_access:ssid": null, "kids_area": null, "name": "McDonald's", "name:en": null, "note": null, "opening_hours": null, "opening_hours:drive_through": null, "opening_hours:url": null, "operator": null, "outdoor_seating": "yes", "phone": null, "ref": null, "roof:colour": null, "roof:shape": null, "smoking": null, "source": null, "takeaway": "yes", "@geometry": "center", "big_mac": "6.39" }, "geometry": { "type": "Point", "coordinates": [ -123.9204974, 45.9922483 ] } },
{ "type": "Feature", "properties": { "id": "way/119417342", "@id": "way/119417342", "addr:city": "Hood River", "addr:country": null, "addr:housenumber": "1049", "addr:postcode": "97031", "addr:state": "OR", "addr:street": "East Marina Way", "addr:unit": null, "amenity": "fast_food", "brand": "McDonald's", "brand:website": null, "brand:wikidata": "Q38076", "brand:wikipedia": "en:McDonald's", "building": "yes", "building:colour": null, "building:levels": null, "building:part": null, "building:use": null, "check_date": null, "cuisine": "burger", "delivery": null, "dog": null, "drive_through": "yes", "ele": null, "height": null, "indoor_seating": null, "internet_access": "wlan", "internet_access:fee": "no", "internet_access:ssid": null, "kids_area": null, "name": "McDonald's", "name:en": null, "note": null, "opening_hours": "05:30-23:00", "opening_hours:drive_through": null, "opening_hours:url": null, "operator": null, "outdoor_seating": "yes", "phone": "+1-541-386-2268", "ref": "7966", "roof:colour": null, "roof:shape": null, "smoking": null, "source": null, "takeaway": "yes", "@geometry": "center", "big_mac": "5.25" }, "geometry": { "type": "Point", "coordinates": [ -121.5001256, 45.7112164 ] } },
{ "type": "Feature", "properties": { "id": "way/124676704", "@id": "way/124676704", "addr:city": null, "addr:country": null, "addr:housenumber": null, "addr:postcode": null, "addr:state": null, "addr:street": null, "addr:unit": null, "amenity": "fast_food", "brand": "McDonald's", "brand:website": "https://www.mcdonalds.com/", "brand:wikidata": "Q38076", "brand:wikipedia": "en:McDonald's", "building": "retail", "building:colour": null, "building:levels": null, "building:part": null, "building:use": null, "check_date": null, "cuisine": "burger", "delivery": null, "dog": null, "drive_through": null, "ele": null, "height": null, "indoor_seating": null, "internet_access": null, "internet_access:fee": null, "internet_access:ssid": null, "kids_area": null, "name": "McDonald's", "name:en": null, "note": null, "opening_hours": null, "opening_hours:drive_through": null, "opening_hours:url": null, "operator": null, "outdoor_seating": null, "phone": null, "ref": null, "roof:colour": null, "roof:shape": null, "smoking": null, "source": null, "takeaway": "yes", "@geometry": "center", "big_mac": "4.55" }, "geometry": { "type": "Point", "coordinates": [ -123.2600614, 44.5666728 ] } },
{ "type": "Feature", "properties": { "id": "way/141022837", "@id": "way/141022837", "addr:city": "Portland", "addr:country": null, "addr:housenumber": "13459", "addr:postcode": "97229", "addr:state": "OR", "addr:street": "Northwest Cornell Road", "addr:unit": null, "amenity": "fast_food", "brand": "McDonald's", "brand:website": "https://www.mcdonalds.com/", "brand:wikidata": "Q38076", "brand:wikipedia": "en:McDonald's", "building": "yes", "building:colour": null, "building:levels": null, "building:part": null, "building:use": null, "check_date": null, "cuisine": "burger", "delivery": null, "dog": null, "drive_through": "yes", "ele": null, "height": null, "indoor_seating": null, "internet_access": "wlan", "internet_access:fee": "no", "internet_access:ssid": null, "kids_area": null, "name": "McDonald's", "name:en": null, "note": null, "opening_hours": "05:00-24:00", "opening_hours:drive_through": null, "opening_hours:url": null, "operator": null, "outdoor_seating": null, "phone": "+1-503-643-9455", "ref": "21298", "roof:colour": null, "roof:shape": null, "smoking": null, "source": null, "takeaway": "yes", "@geometry": "center", "big_mac": "5.45" }, "geometry": { "type": "Point", "coordinates": [ -122.8138154, 45.5277432 ] } },
{ "type": "Feature", "properties": { "id": "way/150535623", "@id": "way/150535623", "addr:city": "Portland", "addr:country": null, "addr:housenumber": "12005", "addr:postcode": "97217", "addr:state": "OR", "addr:street": "North Center Avenue", "addr:unit": null, "amenity": "fast_food", "brand": "McDonald's", "brand:website": "https://www.mcdonalds.com/", "brand:wikidata": "Q38076", "brand:wikipedia": "en:McDonald's", "building": "yes", "building:colour": null, "building:levels": null, "building:part": null, "building:use": null, "check_date": null, "cuisine": "burger", "delivery": null, "dog": null, "drive_through": "24/7", "ele": null, "height": null, "indoor_seating": null, "internet_access": "wlan", "internet_access:fee": "no", "internet_access:ssid": null, "kids_area": null, "name": "McDonald's", "name:en": null, "note": null, "opening_hours": "05:00-23:00", "opening_hours:drive_through": null, "opening_hours:url": null, "operator": null, "outdoor_seating": null, "phone": "+1-503-289-2127", "ref": null, "roof:colour": null, "roof:shape": null, "smoking": "no", "source": null, "takeaway": "yes", "@geometry": "center", "big_mac": "5.15" }, "geometry": { "type": "Point", "coordinates": [ -122.6805744, 45.6101699 ] } },
{ "type": "Feature", "properties": { "id": "way/150570453", "@id": "way/150570453", "addr:city": "Portland", "addr:country": null, "addr:housenumber": "1831", "addr:postcode": "97209", "addr:state": "OR", "addr:street": "West Burnside Street", "addr:unit": null, "amenity": "fast_food", "brand": "McDonald's", "brand:website": "https://www.mcdonalds.com/", "brand:wikidata": "Q38076", "brand:wikipedia": "en:McDonald's", "building": "yes", "building:colour": null, "building:levels": null, "building:part": null, "building:use": null, "check_date": null, "cuisine": "burger", "delivery": null, "dog": null, "drive_through": "yes", "ele": null, "height": null, "indoor_seating": null, "internet_access": "wlan", "internet_access:fee": "no", "internet_access:ssid": null, "kids_area": null, "name": "McDonald's", "name:en": null, "note": null, "opening_hours": "05:00-23:00; 24/7 \"drive-through\"", "opening_hours:drive_through": null, "opening_hours:url": null, "operator": null, "outdoor_seating": null, "phone": "+1-503-227-6870", "ref": null, "roof:colour": null, "roof:shape": null, "smoking": null, "source": null, "takeaway": "yes", "@geometry": "center", "big_mac": "5.75" }, "geometry": { "type": "Point", "coordinates": [ -122.6899743, 45.523189 ] } },
{ "type": "Feature", "properties": { "id": "way/171729113", "@id": "way/171729113", "addr:city": null, "addr:country": null, "addr:housenumber": null, "addr:postcode": null, "addr:state": null, "addr:street": null, "addr:unit": null, "amenity": "fast_food", "brand": "McDonald's", "brand:website": null, "brand:wikidata": "Q38076", "brand:wikipedia": "en:McDonald's", "building": "yes", "building:colour": null, "building:levels": null, "building:part": null, "building:use": null, "check_date": null, "cuisine": "burger", "delivery": null, "dog": null, "drive_through": null, "ele": null, "height": null, "indoor_seating": null, "internet_access": null, "internet_access:fee": null, "internet_access:ssid": null, "kids_area": null, "name": "McDonald's", "name:en": null, "note": null, "opening_hours": null, "opening_hours:drive_through": null, "opening_hours:url": null, "operator": null, "outdoor_seating": null, "phone": null, "ref": null, "roof:colour": null, "roof:shape": null, "smoking": null, "source": null, "takeaway": "yes", "@geometry": "center", "big_mac": "5.99" }, "geometry": { "type": "Point", "coordinates": [ -124.0525652, 44.6467966 ] } },
{ "type": "Feature", "properties": { "id": "way/183385858", "@id": "way/183385858", "addr:city": "Forest Grove", "addr:country": null, "addr:housenumber": "3315", "addr:postcode": "97116", "addr:state": "OR", "addr:street": "Pacific Avenue", "addr:unit": null, "amenity": "fast_food", "brand": "McDonald's", "brand:website": "https://www.mcdonalds.com/", "brand:wikidata": "Q38076", "brand:wikipedia": "en:McDonald's", "building": "yes", "building:colour": null, "building:levels": null, "building:part": null, "building:use": null, "check_date": null, "cuisine": "burger", "delivery": null, "dog": null, "drive_through": "yes", "ele": null, "height": null, "indoor_seating": null, "internet_access": "wlan", "internet_access:fee": "no", "internet_access:ssid": null, "kids_area": null, "name": "McDonald's", "name:en": null, "note": "24/7 hours for drive through. Dining room hours 06:00-23:00", "opening_hours": "24/7", "opening_hours:drive_through": null, "opening_hours:url": null, "operator": null, "outdoor_seating": null, "phone": "+1-503-352-9076", "ref": null, "roof:colour": null, "roof:shape": null, "smoking": null, "source": null, "takeaway": "yes", "@geometry": "center", "big_mac": "5.75" }, "geometry": { "type": "Point", "coordinates": [ -123.0890729, 45.5204936 ] } },
{ "type": "Feature", "properties": { "id": "way/195390027", "@id": "way/195390027", "addr:city": null, "addr:country": null, "addr:housenumber": null, "addr:postcode": null, "addr:state": null, "addr:street": null, "addr:unit": null, "amenity": "fast_food", "brand": "McDonald's", "brand:website": null, "brand:wikidata": "Q38076", "brand:wikipedia": "en:McDonald's", "building": "commercial", "building:colour": null, "building:levels": null, "building:part": null, "building:use": null, "check_date": null, "cuisine": "burger", "delivery": null, "dog": null, "drive_through": null, "ele": null, "height": null, "indoor_seating": null, "internet_access": null, "internet_access:fee": null, "internet_access:ssid": null, "kids_area": null, "name": "McDonald's", "name:en": null, "note": null, "opening_hours": null, "opening_hours:drive_through": null, "opening_hours:url": null, "operator": null, "outdoor_seating": null, "phone": null, "ref": null, "roof:colour": null, "roof:shape": null, "smoking": null, "source": null, "takeaway": "yes", "@geometry": "center", "big_mac": "4.99" }, "geometry": { "type": "Point", "coordinates": [ -121.7544546, 42.2116947 ] } },
{ "type": "Feature", "properties": { "id": "way/199295197", "@id": "way/199295197", "addr:city": "Lincoln City", "addr:country": null, "addr:housenumber": "5060", "addr:postcode": "97367", "addr:state": "OR", "addr:street": "Northeast Highway 101", "addr:unit": null, "amenity": "fast_food", "brand": "McDonald's", "brand:website": "https://www.mcdonalds.com/", "brand:wikidata": "Q38076", "brand:wikipedia": "en:McDonald's", "building": "yes", "building:colour": null, "building:levels": null, "building:part": null, "building:use": null, "check_date": null, "cuisine": "burger", "delivery": null, "dog": null, "drive_through": "yes", "ele": null, "height": null, "indoor_seating": null, "internet_access": null, "internet_access:fee": null, "internet_access:ssid": null, "kids_area": null, "name": "McDonald's", "name:en": null, "note": null, "opening_hours": null, "opening_hours:drive_through": null, "opening_hours:url": null, "operator": null, "outdoor_seating": null, "phone": null, "ref": null, "roof:colour": null, "roof:shape": null, "smoking": null, "source": null, "takeaway": "yes", "@geometry": "center", "big_mac": "5.99" }, "geometry": { "type": "Point", "coordinates": [ -124.0048281, 44.9951334 ] } },
{ "type": "Feature", "properties": { "id": "way/200676592", "@id": "way/200676592", "addr:city": "Springfield", "addr:country": null, "addr:housenumber": "1565", "addr:postcode": "97477", "addr:state": "OR", "addr:street": "Mohawk Boulevard", "addr:unit": null, "amenity": "fast_food", "brand": "McDonald's", "brand:website": null, "brand:wikidata": "Q38076", "brand:wikipedia": "en:McDonald's", "building": "commercial", "building:colour": null, "building:levels": null, "building:part": null, "building:use": null, "check_date": null, "cuisine": "burger", "delivery": "no", "dog": null, "drive_through": null, "ele": null, "height": null, "indoor_seating": null, "internet_access": null, "internet_access:fee": null, "internet_access:ssid": null, "kids_area": null, "name": "McDonald's", "name:en": null, "note": null, "opening_hours": null, "opening_hours:drive_through": null, "opening_hours:url": null, "operator": null, "outdoor_seating": "no", "phone": null, "ref": null, "roof:colour": null, "roof:shape": null, "smoking": null, "source": null, "takeaway": "yes", "@geometry": "center", "big_mac": "5.50" }, "geometry": { "type": "Point", "coordinates": [ -122.9992596, 44.0593415 ] } },
{ "type": "Feature", "properties": { "id": "way/202035429", "@id": "way/202035429", "addr:city": "Cottage Grove", "addr:country": null, "addr:housenumber": "1520", "addr:postcode": "97424", "addr:state": "OR", "addr:street": "Gateway Boulevard", "addr:unit": null, "amenity": "fast_food", "brand": "McDonald's", "brand:website": null, "brand:wikidata": "Q38076", "brand:wikipedia": "en:McDonald's", "building": "yes", "building:colour": null, "building:levels": null, "building:part": null, "building:use": null, "check_date": null, "cuisine": "burger", "delivery": null, "dog": null, "drive_through": "yes", "ele": null, "height": null, "indoor_seating": null, "internet_access": null, "internet_access:fee": null, "internet_access:ssid": null, "kids_area": null, "name": "McDonald's", "name:en": null, "note": null, "opening_hours": null, "opening_hours:drive_through": null, "opening_hours:url": null, "operator": null, "outdoor_seating": null, "phone": null, "ref": null, "roof:colour": null, "roof:shape": null, "smoking": null, "source": "bing", "takeaway": "yes", "@geometry": "center", "big_mac": "5.50" }, "geometry": { "type": "Point", "coordinates": [ -123.0449597, 43.8034964 ] } },
{ "type": "Feature", "properties": { "id": "way/215226566", "@id": "way/215226566", "addr:city": null, "addr:country": null, "addr:housenumber": null, "addr:postcode": null, "addr:state": null, "addr:street": null, "addr:unit": null, "amenity": "fast_food", "brand": "McDonald's", "brand:website": null, "brand:wikidata": "Q38076", "brand:wikipedia": "en:McDonald's", "building": "yes", "building:colour": null, "building:levels": null, "building:part": null, "building:use": null, "check_date": null, "cuisine": "burger", "delivery": null, "dog": null, "drive_through": null, "ele": null, "height": null, "indoor_seating": null, "internet_access": null, "internet_access:fee": null, "internet_access:ssid": null, "kids_area": null, "name": "McDonald's", "name:en": null, "note": null, "opening_hours": null, "opening_hours:drive_through": null, "opening_hours:url": null, "operator": null, "outdoor_seating": null, "phone": null, "ref": null, "roof:colour": null, "roof:shape": null, "smoking": null, "source": "Bing", "takeaway": "yes", "@geometry": "center", "big_mac": "6.50" }, "geometry": { "type": "Point", "coordinates": [ -119.0740804, 43.5736313 ] } },
{ "type": "Feature", "properties": { "id": "way/217203310", "@id": "way/217203310", "addr:city": "Springfield", "addr:country": null, "addr:housenumber": "3405", "addr:postcode": "97477", "addr:state": "OR", "addr:street": "Gateway Street", "addr:unit": null, "amenity": "fast_food", "brand": "McDonald's", "brand:website": null, "brand:wikidata": "Q38076", "brand:wikipedia": "en:McDonald's", "building": "yes", "building:colour": null, "building:levels": null, "building:part": null, "building:use": null, "check_date": "2023-05-04", "cuisine": "burger", "delivery": null, "dog": null, "drive_through": null, "ele": null, "height": null, "indoor_seating": null, "internet_access": null, "internet_access:fee": null, "internet_access:ssid": null, "kids_area": null, "name": "McDonald's", "name:en": null, "note": null, "opening_hours": null, "opening_hours:drive_through": null, "opening_hours:url": null, "operator": null, "outdoor_seating": null, "phone": null, "ref": null, "roof:colour": null, "roof:shape": null, "smoking": null, "source": "Bing", "takeaway": "yes", "@geometry": "center", "big_mac": "5.50" }, "geometry": { "type": "Point", "coordinates": [ -123.0410026, 44.0829933 ] } },
{ "type": "Feature", "properties": { "id": "way/234587596", "@id": "way/234587596", "addr:city": "Portland", "addr:country": null, "addr:housenumber": "2875", "addr:postcode": "97202", "addr:state": "OR", "addr:street": "Southeast Powell Boulevard", "addr:unit": null, "amenity": "fast_food", "brand": "McDonald's", "brand:website": "https://www.mcdonalds.com/", "brand:wikidata": "Q38076", "brand:wikipedia": "en:McDonald's", "building": "yes", "building:colour": null, "building:levels": null, "building:part": null, "building:use": null, "check_date": null, "cuisine": "burger", "delivery": null, "dog": null, "drive_through": "yes", "ele": null, "height": null, "indoor_seating": null, "internet_access": null, "internet_access:fee": null, "internet_access:ssid": null, "kids_area": null, "name": "McDonald's", "name:en": null, "note": null, "opening_hours": null, "opening_hours:drive_through": null, "opening_hours:url": null, "operator": null, "outdoor_seating": null, "phone": "+1-503-233-4029", "ref": null, "roof:colour": null, "roof:shape": null, "smoking": null, "source": null, "takeaway": "yes", "@geometry": "center", "big_mac": "4.59" }, "geometry": { "type": "Point", "coordinates": [ -122.6360563, 45.4977285 ] } },
{ "type": "Feature", "properties": { "id": "way/262580825", "@id": "way/262580825", "addr:city": null, "addr:country": null, "addr:housenumber": null, "addr:postcode": null, "addr:state": null, "addr:street": null, "addr:unit": null, "amenity": "fast_food", "brand": "McDonald's", "brand:website": "https://www.mcdonalds.com/", "brand:wikidata": "Q38076", "brand:wikipedia": "en:McDonald's", "building": "retail", "building:colour": null, "building:levels": null, "building:part": null, "building:use": null, "check_date": null, "cuisine": "burger", "delivery": null, "dog": null, "drive_through": null, "ele": null, "height": null, "indoor_seating": null, "internet_access": null, "internet_access:fee": null, "internet_access:ssid": null, "kids_area": null, "name": "McDonald's", "name:en": null, "note": null, "opening_hours": null, "opening_hours:drive_through": null, "opening_hours:url": null, "operator": null, "outdoor_seating": null, "phone": null, "ref": null, "roof:colour": null, "roof:shape": null, "smoking": null, "source": null, "takeaway": "yes", "@geometry": "center", "big_mac": "5.75" }, "geometry": { "type": "Point", "coordinates": [ -122.9968282, 45.5920009 ] } },
{ "type": "Feature", "properties": { "id": "way/267098489", "@id": "way/267098489", "addr:city": "Portland", "addr:country": null, "addr:housenumber": "3110", "addr:postcode": "97217", "addr:state": "OR", "addr:street": "North Going Street", "addr:unit": null, "amenity": "fast_food", "brand": "McDonald's", "brand:website": null, "brand:wikidata": "Q38076", "brand:wikipedia": "en:McDonald's", "building": "commercial", "building:colour": null, "building:levels": null, "building:part": null, "building:use": null, "check_date": null, "cuisine": "burger", "delivery": null, "dog": null, "drive_through": null, "ele": null, "height": null, "indoor_seating": null, "internet_access": null, "internet_access:fee": null, "internet_access:ssid": null, "kids_area": null, "name": "McDonald's", "name:en": null, "note": null, "opening_hours": null, "opening_hours:drive_through": null, "opening_hours:url": null, "operator": null, "outdoor_seating": null, "phone": null, "ref": null, "roof:colour": null, "roof:shape": null, "smoking": null, "source": null, "takeaway": "yes", "@geometry": "center", "big_mac": "5.15" }, "geometry": { "type": "Point", "coordinates": [ -122.6986961, 45.5556286 ] } },
{ "type": "Feature", "properties": { "id": "way/286811686", "@id": "way/286811686", "addr:city": null, "addr:country": null, "addr:housenumber": null, "addr:postcode": null, "addr:state": null, "addr:street": null, "addr:unit": null, "amenity": "fast_food", "brand": "McDonald's", "brand:website": null, "brand:wikidata": "Q38076", "brand:wikipedia": "en:McDonald's", "building": "yes", "building:colour": null, "building:levels": null, "building:part": null, "building:use": null, "check_date": null, "cuisine": "burger", "delivery": null, "dog": null, "drive_through": null, "ele": null, "height": null, "indoor_seating": null, "internet_access": null, "internet_access:fee": null, "internet_access:ssid": null, "kids_area": null, "name": "McDonald's", "name:en": null, "note": null, "opening_hours": null, "opening_hours:drive_through": null, "opening_hours:url": null, "operator": null, "outdoor_seating": null, "phone": null, "ref": null, "roof:colour": null, "roof:shape": null, "smoking": null, "source": null, "takeaway": "yes", "@geometry": "center", "big_mac": "5.50" }, "geometry": { "type": "Point", "coordinates": [ -123.0643271, 44.6425306 ] } },
{ "type": "Feature", "properties": { "id": "way/299135499", "@id": "way/299135499", "addr:city": "Beaverton", "addr:country": null, "addr:housenumber": "9475", "addr:postcode": "97005", "addr:state": "OR", "addr:street": "Southwest Beaverton Hillsdale Highway", "addr:unit": null, "amenity": "fast_food", "brand": "McDonald's", "brand:website": "https://www.mcdonalds.com/", "brand:wikidata": "Q38076", "brand:wikipedia": "en:McDonald's", "building": "yes", "building:colour": null, "building:levels": null, "building:part": null, "building:use": null, "check_date": null, "cuisine": "burger", "delivery": null, "dog": null, "drive_through": "yes", "ele": null, "height": null, "indoor_seating": null, "internet_access": null, "internet_access:fee": null, "internet_access:ssid": null, "kids_area": null, "name": "McDonald's", "name:en": null, "note": null, "opening_hours": "05:00-24:00", "opening_hours:drive_through": null, "opening_hours:url": null, "operator": null, "outdoor_seating": null, "phone": "+1-503-646-1816", "ref": "330", "roof:colour": null, "roof:shape": null, "smoking": null, "source": null, "takeaway": "yes", "@geometry": "center", "big_mac": "5.45" }, "geometry": { "type": "Point", "coordinates": [ -122.7742169, 45.4868383 ] } },
{ "type": "Feature", "properties": { "id": "way/306560071", "@id": "way/306560071", "addr:city": null, "addr:country": null, "addr:housenumber": null, "addr:postcode": null, "addr:state": null, "addr:street": null, "addr:unit": null, "amenity": "fast_food", "brand": "McDonald's", "brand:website": null, "brand:wikidata": "Q38076", "brand:wikipedia": "en:McDonald's", "building": "yes", "building:colour": "white", "building:levels": null, "building:part": null, "building:use": "foodservice", "check_date": null, "cuisine": "burger", "delivery": null, "dog": null, "drive_through": null, "ele": null, "height": null, "indoor_seating": null, "internet_access": null, "internet_access:fee": null, "internet_access:ssid": null, "kids_area": null, "name": "McDonald's", "name:en": null, "note": null, "opening_hours": null, "opening_hours:drive_through": null, "opening_hours:url": null, "operator": null, "outdoor_seating": null, "phone": null, "ref": null, "roof:colour": "grey", "roof:shape": "flat", "smoking": null, "source": null, "takeaway": "yes", "@geometry": "center", "big_mac": "5.99" }, "geometry": { "type": "Point", "coordinates": [ -117.8152351, 44.7820022 ] } },
{ "type": "Feature", "properties": { "id": "way/311044555", "@id": "way/311044555", "addr:city": "Eugene", "addr:country": null, "addr:housenumber": "55", "addr:postcode": "97404", "addr:state": "OR", "addr:street": "River Avenue", "addr:unit": null, "amenity": "fast_food", "brand": "McDonald's", "brand:website": null, "brand:wikidata": "Q38076", "brand:wikipedia": "en:McDonald's", "building": "yes", "building:colour": null, "building:levels": null, "building:part": null, "building:use": null, "check_date": null, "cuisine": "burger", "delivery": null, "dog": null, "drive_through": null, "ele": null, "height": null, "indoor_seating": null, "internet_access": null, "internet_access:fee": null, "internet_access:ssid": null, "kids_area": null, "name": "McDonald's", "name:en": null, "note": null, "opening_hours": null, "opening_hours:drive_through": null, "opening_hours:url": null, "operator": null, "outdoor_seating": null, "phone": null, "ref": null, "roof:colour": null, "roof:shape": null, "smoking": null, "source": null, "takeaway": "yes", "@geometry": "center", "big_mac": "5.50" }, "geometry": { "type": "Point", "coordinates": [ -123.1265079, 44.0959729 ] } },
{ "type": "Feature", "properties": { "id": "way/311084640", "@id": "way/311084640", "addr:city": "Hillsboro", "addr:country": "US", "addr:housenumber": "110", "addr:postcode": "97123", "addr:state": "OR", "addr:street": "Southeast Baseline Street", "addr:unit": null, "amenity": "fast_food", "brand": "McDonald's", "brand:website": "https://www.mcdonalds.com/", "brand:wikidata": "Q38076", "brand:wikipedia": "en:McDonald's", "building": "yes", "building:colour": null, "building:levels": null, "building:part": null, "building:use": null, "check_date": null, "cuisine": "burger", "delivery": null, "dog": null, "drive_through": "yes", "ele": null, "height": null, "indoor_seating": null, "internet_access": null, "internet_access:fee": null, "internet_access:ssid": null, "kids_area": null, "name": "McDonald's", "name:en": null, "note": null, "opening_hours": null, "opening_hours:drive_through": null, "opening_hours:url": null, "operator": null, "outdoor_seating": null, "phone": null, "ref": null, "roof:colour": null, "roof:shape": null, "smoking": null, "source": null, "takeaway": "yes", "@geometry": "center", "big_mac": "5.45" }, "geometry": { "type": "Point", "coordinates": [ -122.9893905, 45.519942 ] } },
{ "type": "Feature", "properties": { "id": "way/318885804", "@id": "way/318885804", "addr:city": "Damascus", "addr:country": null, "addr:housenumber": "19850", "addr:postcode": "97089", "addr:state": "OR", "addr:street": "Southeast Highway 212", "addr:unit": null, "amenity": "fast_food", "brand": "McDonald's", "brand:website": "https://www.mcdonalds.com/", "brand:wikidata": "Q38076", "brand:wikipedia": "en:McDonald's", "building": "yes", "building:colour": null, "building:levels": null, "building:part": null, "building:use": null, "check_date": null, "cuisine": "burger", "delivery": null, "dog": null, "drive_through": "yes", "ele": null, "height": null, "indoor_seating": null, "internet_access": "wlan", "internet_access:fee": "no", "internet_access:ssid": null, "kids_area": null, "name": "McDonald's", "name:en": null, "note": null, "opening_hours": "Mo-Sa 05:00-23:00; Su 06:00-23:00", "opening_hours:drive_through": null, "opening_hours:url": null, "operator": null, "outdoor_seating": null, "phone": "+1-503-658-0709", "ref": null, "roof:colour": null, "roof:shape": null, "smoking": null, "source": null, "takeaway": "yes", "@geometry": "center", "big_mac": "4.69" }, "geometry": { "type": "Point", "coordinates": [ -122.4577815, 45.4172645 ] } },
{ "type": "Feature", "properties": { "id": "way/319800945", "@id": "way/319800945", "addr:city": "Milwaukie", "addr:country": null, "addr:housenumber": "10970", "addr:postcode": "97222", "addr:state": "OR", "addr:street": "Southeast Oak Street", "addr:unit": null, "amenity": "fast_food", "brand": "McDonald's", "brand:website": "https://www.mcdonalds.com/", "brand:wikidata": "Q38076", "brand:wikipedia": "en:McDonald's", "building": "yes", "building:colour": null, "building:levels": null, "building:part": null, "building:use": null, "check_date": null, "cuisine": "burger", "delivery": null, "dog": null, "drive_through": "Mo-Th 00:00-04:00,04:30-24:00; We-Su 04:30-24:00", "ele": null, "height": null, "indoor_seating": null, "internet_access": "wlan", "internet_access:fee": "no", "internet_access:ssid": null, "kids_area": null, "name": "McDonald's", "name:en": null, "note": null, "opening_hours": "Mo,We 05:00-23:00; Tu-Su 05:00-22:00", "opening_hours:drive_through": null, "opening_hours:url": null, "operator": null, "outdoor_seating": null, "phone": "+1-503-659-0979", "ref": null, "roof:colour": null, "roof:shape": null, "smoking": null, "source": null, "takeaway": "yes", "@geometry": "center", "big_mac": "4.95" }, "geometry": { "type": "Point", "coordinates": [ -122.6285798, 45.4432941 ] } },
{ "type": "Feature", "properties": { "id": "way/324301299", "@id": "way/324301299", "addr:city": "Canby", "addr:country": "US", "addr:housenumber": "709", "addr:postcode": "97013", "addr:state": "OR", "addr:street": "Southwest 1st Avenue", "addr:unit": null, "amenity": "fast_food", "brand": "McDonald's", "brand:website": "https://www.mcdonalds.com/", "brand:wikidata": "Q38076", "brand:wikipedia": "en:McDonald's", "building": "yes", "building:colour": null, "building:levels": null, "building:part": null, "building:use": null, "check_date": null, "cuisine": "burger", "delivery": null, "dog": null, "drive_through": "24/7", "ele": "47.6", "height": "7.4", "indoor_seating": null, "internet_access": "wlan", "internet_access:fee": "no", "internet_access:ssid": null, "kids_area": null, "name": "McDonald's", "name:en": null, "note": null, "opening_hours": "5:00-23:00", "opening_hours:drive_through": null, "opening_hours:url": null, "operator": null, "outdoor_seating": null, "phone": "+1-503-232-7005", "ref": null, "roof:colour": null, "roof:shape": null, "smoking": null, "source": null, "takeaway": "yes", "@geometry": "center", "big_mac": "4.99" }, "geometry": { "type": "Point", "coordinates": [ -122.6991676, 45.2588968 ] } },
{ "type": "Feature", "properties": { "id": "way/325447260", "@id": "way/325447260", "addr:city": "Portland", "addr:country": null, "addr:housenumber": "8149", "addr:postcode": "97215", "addr:state": "OR", "addr:street": "Southeast Stark Street", "addr:unit": null, "amenity": "fast_food", "brand": "McDonald's", "brand:website": null, "brand:wikidata": "Q38076", "brand:wikipedia": "en:McDonald's", "building": "yes", "building:colour": null, "building:levels": null, "building:part": null, "building:use": null, "check_date": null, "cuisine": "burger", "delivery": null, "dog": null, "drive_through": "yes", "ele": null, "height": null, "indoor_seating": null, "internet_access": null, "internet_access:fee": null, "internet_access:ssid": null, "kids_area": null, "name": "McDonald's", "name:en": null, "note": null, "opening_hours": null, "opening_hours:drive_through": null, "opening_hours:url": null, "operator": null, "outdoor_seating": null, "phone": null, "ref": null, "roof:colour": null, "roof:shape": null, "smoking": null, "source": null, "takeaway": "yes", "@geometry": "center", "big_mac": "5.15" }, "geometry": { "type": "Point", "coordinates": [ -122.579372, 45.5194054 ] } },
{ "type": "Feature", "properties": { "id": "way/331558946", "@id": "way/331558946", "addr:city": null, "addr:country": null, "addr:housenumber": null, "addr:postcode": null, "addr:state": null, "addr:street": null, "addr:unit": null, "amenity": "fast_food", "brand": "McDonald's", "brand:website": "https://www.mcdonalds.com/", "brand:wikidata": "Q38076", "brand:wikipedia": "en:McDonald's", "building": "retail", "building:colour": null, "building:levels": null, "building:part": null, "building:use": null, "check_date": null, "cuisine": "burger", "delivery": null, "dog": null, "drive_through": "yes", "ele": null, "height": null, "indoor_seating": null, "internet_access": null, "internet_access:fee": null, "internet_access:ssid": null, "kids_area": null, "name": "McDonald's", "name:en": null, "note": null, "opening_hours": "5:00-23:00", "opening_hours:drive_through": null, "opening_hours:url": null, "operator": null, "outdoor_seating": null, "phone": null, "ref": null, "roof:colour": null, "roof:shape": null, "smoking": null, "source": null, "takeaway": "yes", "@geometry": "center", "big_mac": "4.69" }, "geometry": { "type": "Point", "coordinates": [ -123.2543481, 44.5908749 ] } },
{ "type": "Feature", "properties": { "id": "way/332360718", "@id": "way/332360718", "addr:city": "Tigard", "addr:country": null, "addr:housenumber": "12388", "addr:postcode": "97223", "addr:state": "OR", "addr:street": "Southwest Scholls Ferry Road", "addr:unit": null, "amenity": "fast_food", "brand": "McDonald's", "brand:website": "https://www.mcdonalds.com/", "brand:wikidata": "Q38076", "brand:wikipedia": "en:McDonald's", "building": "yes", "building:colour": null, "building:levels": null, "building:part": null, "building:use": null, "check_date": null, "cuisine": "burger", "delivery": null, "dog": null, "drive_through": "yes", "ele": null, "height": null, "indoor_seating": null, "internet_access": "wlan", "internet_access:fee": "no", "internet_access:ssid": "McDonalds Free WiFi", "kids_area": null, "name": "McDonald's", "name:en": null, "note": null, "opening_hours": "Drivethru open 24/7, Mon-Thu 7-9, Fri-Sun opens 7 closes unknown", "opening_hours:drive_through": null, "opening_hours:url": null, "operator": null, "outdoor_seating": null, "phone": null, "ref": null, "roof:colour": null, "roof:shape": null, "smoking": "no", "source": null, "takeaway": "yes", "@geometry": "center", "big_mac": "5.45" }, "geometry": { "type": "Point", "coordinates": [ -122.803871, 45.4433057 ] } },
{ "type": "Feature", "properties": { "id": "way/336054417", "@id": "way/336054417", "addr:city": "Tigard", "addr:country": null, "addr:housenumber": "12090", "addr:postcode": "97223", "addr:state": "OR", "addr:street": "Southwest Main Street", "addr:unit": null, "amenity": "fast_food", "brand": "McDonald's", "brand:website": "https://www.mcdonalds.com/", "brand:wikidata": "Q38076", "brand:wikipedia": "en:McDonald's", "building": "yes", "building:colour": null, "building:levels": null, "building:part": null, "building:use": null, "check_date": null, "cuisine": "burger", "delivery": null, "dog": null, "drive_through": "yes", "ele": "59.3", "height": "5.0", "indoor_seating": null, "internet_access": "wlan", "internet_access:fee": "no", "internet_access:ssid": null, "kids_area": null, "name": "McDonald's", "name:en": null, "note": null, "opening_hours": "24/7", "opening_hours:drive_through": null, "opening_hours:url": null, "operator": null, "outdoor_seating": null, "phone": "+1-503-639-8585", "ref": null, "roof:colour": null, "roof:shape": null, "smoking": null, "source": null, "takeaway": "yes", "@geometry": "center", "big_mac": "5.45" }, "geometry": { "type": "Point", "coordinates": [ -122.7678887, 45.432313 ] } },
{ "type": "Feature", "properties": { "id": "way/344376777", "@id": "way/344376777", "addr:city": "Eugene", "addr:country": null, "addr:housenumber": "659", "addr:postcode": "97401", "addr:state": "OR", "addr:street": "East Broadway", "addr:unit": null, "amenity": "fast_food", "brand": "McDonald's", "brand:website": null, "brand:wikidata": "Q38076", "brand:wikipedia": "en:McDonald's", "building": "yes", "building:colour": null, "building:levels": null, "building:part": null, "building:use": null, "check_date": null, "cuisine": "burger", "delivery": null, "dog": null, "drive_through": null, "ele": null, "height": null, "indoor_seating": null, "internet_access": null, "internet_access:fee": null, "internet_access:ssid": null, "kids_area": null, "name": "McDonald's", "name:en": null, "note": null, "opening_hours": null, "opening_hours:drive_through": null, "opening_hours:url": null, "operator": null, "outdoor_seating": null, "phone": null, "ref": null, "roof:colour": null, "roof:shape": null, "smoking": null, "source": "Bing", "takeaway": "yes", "@geometry": "center", "big_mac": "5.50" }, "geometry": { "type": "Point", "coordinates": [ -123.0830767, 44.0502461 ] } },
{ "type": "Feature", "properties": { "id": "way/345134115", "@id": "way/345134115", "addr:city": "Eugene", "addr:country": null, "addr:housenumber": "1910", "addr:postcode": "97402", "addr:state": "OR", "addr:street": "West 6th Avenue", "addr:unit": null, "amenity": "fast_food", "brand": "McDonald's", "brand:website": null, "brand:wikidata": "Q38076", "brand:wikipedia": "en:McDonald's", "building": "yes", "building:colour": null, "building:levels": null, "building:part": null, "building:use": null, "check_date": null, "cuisine": "burger", "delivery": null, "dog": null, "drive_through": "yes", "ele": null, "height": null, "indoor_seating": null, "internet_access": null, "internet_access:fee": null, "internet_access:ssid": null, "kids_area": null, "name": "McDonald's", "name:en": null, "note": null, "opening_hours": null, "opening_hours:drive_through": null, "opening_hours:url": null, "operator": "mcdonald", "outdoor_seating": null, "phone": "+1 541 342 5533", "ref": null, "roof:colour": null, "roof:shape": null, "smoking": null, "source": "Bing", "takeaway": "yes", "@geometry": "center", "big_mac": "5.50" }, "geometry": { "type": "Point", "coordinates": [ -123.1216609, 44.0530103 ] } },
{ "type": "Feature", "properties": { "id": "way/348160261", "@id": "way/348160261", "addr:city": "Oregon City", "addr:country": null, "addr:housenumber": "2010", "addr:postcode": "97045", "addr:state": "OR", "addr:street": "Clackamette Drive", "addr:unit": null, "amenity": "fast_food", "brand": "McDonald's", "brand:website": "https://www.mcdonalds.com/", "brand:wikidata": "Q38076", "brand:wikipedia": "en:McDonald's", "building": "yes", "building:colour": null, "building:levels": null, "building:part": null, "building:use": null, "check_date": null, "cuisine": "burger", "delivery": null, "dog": null, "drive_through": "Mo-Su 05:00-23:00; Fr,Sa 05:00-24:00", "ele": "14.9", "height": "4.8", "indoor_seating": null, "internet_access": "wlan", "internet_access:fee": "no", "internet_access:ssid": null, "kids_area": null, "name": "McDonald's", "name:en": null, "note": null, "opening_hours": "05:00-23:00", "opening_hours:drive_through": null, "opening_hours:url": null, "operator": null, "outdoor_seating": null, "phone": "+1-503-655-2393", "ref": null, "roof:colour": null, "roof:shape": null, "smoking": null, "source": null, "takeaway": "yes", "@geometry": "center", "big_mac": "5.15" }, "geometry": { "type": "Point", "coordinates": [ -122.6018031, 45.3689588 ] } },
{ "type": "Feature", "properties": { "id": "way/348352019", "@id": "way/348352019", "addr:city": "Gladstone", "addr:country": null, "addr:housenumber": "820", "addr:postcode": "97027", "addr:state": "OR", "addr:street": "East Berkeley Street", "addr:unit": null, "amenity": "fast_food", "brand": "McDonald's", "brand:website": "https://www.mcdonalds.com/", "brand:wikidata": "Q38076", "brand:wikipedia": "en:McDonald's", "building": "yes", "building:colour": null, "building:levels": null, "building:part": null, "building:use": null, "check_date": null, "cuisine": "burger", "delivery": null, "dog": null, "drive_through": "yes", "ele": "28.3", "height": "5.0", "indoor_seating": null, "internet_access": null, "internet_access:fee": null, "internet_access:ssid": null, "kids_area": null, "name": "McDonald's", "name:en": null, "note": null, "opening_hours": null, "opening_hours:drive_through": null, "opening_hours:url": null, "operator": null, "outdoor_seating": null, "phone": null, "ref": null, "roof:colour": null, "roof:shape": null, "smoking": null, "source": null, "takeaway": "yes", "@geometry": "center", "big_mac": "4.99" }, "geometry": { "type": "Point", "coordinates": [ -122.5820155, 45.3830775 ] } },
{ "type": "Feature", "properties": { "id": "way/351108383", "@id": "way/351108383", "addr:city": "Milwaukie", "addr:country": null, "addr:housenumber": "8151", "addr:postcode": "97222", "addr:state": "OR", "addr:street": "Southeast Lamphier Street", "addr:unit": null, "amenity": "fast_food", "brand": "McDonald's", "brand:website": "https://www.mcdonalds.com/", "brand:wikidata": "Q38076", "brand:wikipedia": "en:McDonald's", "building": "yes", "building:colour": null, "building:levels": null, "building:part": null, "building:use": null, "check_date": null, "cuisine": "burger", "delivery": null, "dog": null, "drive_through": "Mo-Su 05:00-24:00; Th 07:00-24:00; Fr 04:00-24:00", "ele": null, "height": null, "indoor_seating": null, "internet_access": "wlan", "internet_access:fee": "no", "internet_access:ssid": null, "kids_area": null, "name": "McDonald's", "name:en": null, "note": null, "opening_hours": "Mo-Su 05:00-22:00; Th 07:00-22:00", "opening_hours:drive_through": null, "opening_hours:url": null, "operator": null, "outdoor_seating": null, "phone": "+1-503-774-2960", "ref": null, "roof:colour": null, "roof:shape": null, "smoking": null, "source": null, "takeaway": "yes", "@geometry": "center", "big_mac": "4.79" }, "geometry": { "type": "Point", "coordinates": [ -122.5794736, 45.4533834 ] } },
{ "type": "Feature", "properties": { "id": "way/352628229", "@id": "way/352628229", "addr:city": "West Linn", "addr:country": null, "addr:housenumber": "2100", "addr:postcode": "97068", "addr:state": null, "addr:street": "8th Court", "addr:unit": null, "amenity": "fast_food", "brand": "McDonald's", "brand:website": null, "brand:wikidata": "Q38076", "brand:wikipedia": null, "building": "yes", "building:colour": null, "building:levels": null, "building:part": null, "building:use": null, "check_date": null, "cuisine": "burger", "delivery": null, "dog": null, "drive_through": null, "ele": "44.7", "height": null, "indoor_seating": null, "internet_access": null, "internet_access:fee": null, "internet_access:ssid": null, "kids_area": null, "name": "McDonald's", "name:en": null, "note": null, "opening_hours": null, "opening_hours:drive_through": null, "opening_hours:url": null, "operator": null, "outdoor_seating": null, "phone": null, "ref": null, "roof:colour": null, "roof:shape": null, "smoking": null, "source": null, "takeaway": "yes", "@geometry": "center", "big_mac": "4.99" }, "geometry": { "type": "Point", "coordinates": [ -122.6509612, 45.3462509 ] } },
{ "type": "Feature", "properties": { "id": "way/353015646", "@id": "way/353015646", "addr:city": "Tualatin", "addr:country": null, "addr:housenumber": "19200", "addr:postcode": "97062", "addr:state": "OR", "addr:street": "Southwest Boones Ferry Road", "addr:unit": null, "amenity": "fast_food", "brand": "McDonald's", "brand:website": "https://www.mcdonalds.com/", "brand:wikidata": "Q38076", "brand:wikipedia": "en:McDonald's", "building": "yes", "building:colour": null, "building:levels": null, "building:part": null, "building:use": null, "check_date": null, "cuisine": "burger", "delivery": null, "dog": null, "drive_through": "24/7", "ele": "39.7", "height": "5.2", "indoor_seating": null, "internet_access": null, "internet_access:fee": null, "internet_access:ssid": null, "kids_area": null, "name": "McDonald's", "name:en": null, "note": null, "opening_hours": "05:00-24:00", "opening_hours:drive_through": null, "opening_hours:url": null, "operator": null, "outdoor_seating": null, "phone": "+1-503-692-0420", "ref": null, "roof:colour": null, "roof:shape": null, "smoking": null, "source": null, "takeaway": "yes", "@geometry": "center", "big_mac": "5.45" }, "geometry": { "type": "Point", "coordinates": [ -122.7637452, 45.3809782 ] } },
{ "type": "Feature", "properties": { "id": "way/353365391", "@id": "way/353365391", "addr:city": "Aloha", "addr:country": null, "addr:housenumber": "19525", "addr:postcode": "97003", "addr:state": null, "addr:street": "Southwest Tualatin Valley Highway", "addr:unit": null, "amenity": "fast_food", "brand": "McDonald's", "brand:website": "https://www.mcdonalds.com/", "brand:wikidata": "Q38076", "brand:wikipedia": "en:McDonald's", "building": "yes", "building:colour": null, "building:levels": null, "building:part": null, "building:use": null, "check_date": null, "cuisine": "burger", "delivery": null, "dog": null, "drive_through": "24/7", "ele": "68.3", "height": "5.2", "indoor_seating": null, "internet_access": null, "internet_access:fee": null, "internet_access:ssid": null, "kids_area": null, "name": "McDonald's", "name:en": null, "note": null, "opening_hours": "00:00-02:00,05:00-24:00", "opening_hours:drive_through": null, "opening_hours:url": null, "operator": null, "outdoor_seating": null, "phone": "+1-503-649-7092", "ref": null, "roof:colour": null, "roof:shape": null, "smoking": null, "source": null, "takeaway": "yes", "@geometry": "center", "big_mac": "5.45" }, "geometry": { "type": "Point", "coordinates": [ -122.8784379, 45.4954065 ] } },
{ "type": "Feature", "properties": { "id": "way/355866248", "@id": "way/355866248", "addr:city": "Sherwood", "addr:country": null, "addr:housenumber": "21335", "addr:postcode": "97140", "addr:state": "OR", "addr:street": "Southwest Sherwood Boulevard", "addr:unit": null, "amenity": "fast_food", "brand": "McDonald's", "brand:website": null, "brand:wikidata": "Q38076", "brand:wikipedia": "en:McDonald's", "building": "yes", "building:colour": null, "building:levels": null, "building:part": null, "building:use": null, "check_date": null, "cuisine": "burger", "delivery": null, "dog": null, "drive_through": "yes", "ele": "64.3", "height": "6.7", "indoor_seating": null, "internet_access": "wlan", "internet_access:fee": "no", "internet_access:ssid": null, "kids_area": null, "name": "McDonald's", "name:en": null, "note": null, "opening_hours": "05:00-23:00", "opening_hours:drive_through": null, "opening_hours:url": null, "operator": null, "outdoor_seating": null, "phone": "+1-503-625-6998", "ref": null, "roof:colour": null, "roof:shape": null, "smoking": null, "source": null, "takeaway": "yes", "@geometry": "center", "big_mac": "4.50" }, "geometry": { "type": "Point", "coordinates": [ -122.847674, 45.3655799 ] } },
{ "type": "Feature", "properties": { "id": "node/357824044", "@id": "node/357824044", "addr:city": null, "addr:country": null, "addr:housenumber": null, "addr:postcode": null, "addr:state": null, "addr:street": null, "addr:unit": null, "amenity": "fast_food", "brand": "McDonald's", "brand:website": null, "brand:wikidata": "Q38076", "brand:wikipedia": "en:McDonald's", "building": null, "building:colour": null, "building:levels": null, "building:part": null, "building:use": null, "check_date": null, "cuisine": "burger", "delivery": null, "dog": null, "drive_through": null, "ele": null, "height": null, "indoor_seating": null, "internet_access": null, "internet_access:fee": null, "internet_access:ssid": null, "kids_area": null, "name": "McDonald's", "name:en": null, "note": null, "opening_hours": null, "opening_hours:drive_through": null, "opening_hours:url": null, "operator": null, "outdoor_seating": null, "phone": null, "ref": null, "roof:colour": null, "roof:shape": null, "smoking": null, "source": null, "takeaway": "yes", "@geometry": null, "big_mac": "4.50" }, "geometry": { "type": "Point", "coordinates": [ -122.9840206, 44.9655716 ] } },
{ "type": "Feature", "properties": { "id": "way/360757298", "@id": "way/360757298", "addr:city": "Portland", "addr:country": null, "addr:housenumber": "7487", "addr:postcode": "97203", "addr:state": "OR", "addr:street": "North Ida Avenue", "addr:unit": null, "amenity": "fast_food", "brand": "McDonald's", "brand:website": null, "brand:wikidata": "Q38076", "brand:wikipedia": "en:McDonald's", "building": "yes", "building:colour": null, "building:levels": "1", "building:part": null, "building:use": null, "check_date": null, "cuisine": "burger", "delivery": null, "dog": null, "drive_through": "yes", "ele": "45.3", "height": "5.0", "indoor_seating": null, "internet_access": null, "internet_access:fee": null, "internet_access:ssid": null, "kids_area": null, "name": "McDonald's", "name:en": null, "note": null, "opening_hours": null, "opening_hours:drive_through": null, "opening_hours:url": null, "operator": null, "outdoor_seating": null, "phone": null, "ref": null, "roof:colour": null, "roof:shape": null, "smoking": null, "source": null, "takeaway": "yes", "@geometry": "center", "big_mac": "5.15" }, "geometry": { "type": "Point", "coordinates": [ -122.7389141, 45.5868736 ] } },
{ "type": "Feature", "properties": { "id": "way/365939699", "@id": "way/365939699", "addr:city": "Portland", "addr:country": null, "addr:housenumber": "3208", "addr:postcode": "97210", "addr:state": null, "addr:street": "Northwest Yeon Avenue", "addr:unit": null, "amenity": "fast_food", "brand": "McDonald's", "brand:website": null, "brand:wikidata": "Q38076", "brand:wikipedia": "en:McDonald's", "building": "yes", "building:colour": null, "building:levels": null, "building:part": null, "building:use": null, "check_date": null, "cuisine": "burger", "delivery": null, "dog": null, "drive_through": "yes", "ele": null, "height": null, "indoor_seating": null, "internet_access": null, "internet_access:fee": null, "internet_access:ssid": null, "kids_area": null, "name": "McDonald's", "name:en": null, "note": null, "opening_hours": null, "opening_hours:drive_through": null, "opening_hours:url": null, "operator": null, "outdoor_seating": null, "phone": null, "ref": null, "roof:colour": null, "roof:shape": null, "smoking": null, "source": null, "takeaway": "yes", "@geometry": "center", "big_mac": "5.15" }, "geometry": { "type": "Point", "coordinates": [ -122.7061274, 45.5456838 ] } },
{ "type": "Feature", "properties": { "id": "way/366388837", "@id": "way/366388837", "addr:city": "Sandy", "addr:country": null, "addr:housenumber": "37445", "addr:postcode": "97055", "addr:state": "OR", "addr:street": "Highway 26", "addr:unit": null, "amenity": "fast_food", "brand": "McDonald's", "brand:website": "https://www.mcdonalds.com/", "brand:wikidata": "Q38076", "brand:wikipedia": "en:McDonald's", "building": "yes", "building:colour": null, "building:levels": null, "building:part": null, "building:use": null, "check_date": null, "cuisine": "burger", "delivery": null, "dog": null, "drive_through": "24/7", "ele": null, "height": null, "indoor_seating": null, "internet_access": "wlan", "internet_access:fee": "no", "internet_access:ssid": null, "kids_area": null, "name": "McDonald's", "name:en": null, "note": null, "opening_hours": "Mo-Sa 04:00-23:00; Tu,Su 04:00-24:00", "opening_hours:drive_through": null, "opening_hours:url": null, "operator": null, "outdoor_seating": null, "phone": "+1-503-668-7600", "ref": null, "roof:colour": null, "roof:shape": null, "smoking": null, "source": null, "takeaway": "yes", "@geometry": "center", "big_mac": "4.79" }, "geometry": { "type": "Point", "coordinates": [ -122.2786219, 45.4009638 ] } },
{ "type": "Feature", "properties": { "id": "way/368094600", "@id": "way/368094600", "addr:city": "Oregon City", "addr:country": null, "addr:housenumber": "1450", "addr:postcode": "97045", "addr:state": "OR", "addr:street": "Molalla Avenue", "addr:unit": null, "amenity": "fast_food", "brand": "McDonald's", "brand:website": "https://www.mcdonalds.com/", "brand:wikidata": "Q38076", "brand:wikipedia": "en:McDonald's", "building": "yes", "building:colour": null, "building:levels": null, "building:part": null, "building:use": null, "check_date": null, "cuisine": "burger", "delivery": null, "dog": null, "drive_through": "Mo-Su 04:00-23:00; Fr,Sa 00:00-24:00", "ele": "134.4", "height": "5.4", "indoor_seating": null, "internet_access": "wlan", "internet_access:fee": "no", "internet_access:ssid": null, "kids_area": null, "name": "McDonald's", "name:en": null, "note": null, "opening_hours": "Mo-Sa 05:00-23:00; Su 06:00-23:00", "opening_hours:drive_through": null, "opening_hours:url": null, "operator": null, "outdoor_seating": null, "phone": null, "ref": null, "roof:colour": null, "roof:shape": null, "smoking": null, "source": null, "takeaway": "yes", "@geometry": "center", "big_mac": "4.79" }, "geometry": { "type": "Point", "coordinates": [ -122.5897022, 45.3348468 ] } },
{ "type": "Feature", "properties": { "id": "way/368231207", "@id": "way/368231207", "addr:city": "Portland", "addr:country": null, "addr:housenumber": "12026", "addr:postcode": "97230", "addr:state": "OR", "addr:street": "Northeast Airport Way", "addr:unit": null, "amenity": "fast_food", "brand": "McDonald's", "brand:website": "https://www.mcdonalds.com/", "brand:wikidata": "Q38076", "brand:wikipedia": "en:McDonald's", "building": "yes", "building:colour": null, "building:levels": "1", "building:part": null, "building:use": null, "check_date": null, "cuisine": "burger", "delivery": null, "dog": null, "drive_through": "Mo-Su 00:00-24:00; Fr 04:00-24:00; Sa 00:00-01:00,04:00-24:00", "ele": "8.1", "height": "4.9", "indoor_seating": null, "internet_access": "wlan", "internet_access:fee": "no", "internet_access:ssid": null, "kids_area": null, "name": "McDonald's", "name:en": null, "note": null, "opening_hours": "Mo-Su 04:00-23:00; Fr,Sa 05:00-23:00", "opening_hours:drive_through": null, "opening_hours:url": null, "operator": null, "outdoor_seating": "yes", "phone": "+1-503-253-1695", "ref": "13896", "roof:colour": null, "roof:shape": null, "smoking": null, "source": null, "takeaway": "yes", "@geometry": "center", "big_mac": "4.79" }, "geometry": { "type": "Point", "coordinates": [ -122.5372115, 45.5668522 ] } },
{ "type": "Feature", "properties": { "id": "way/368247171", "@id": "way/368247171", "addr:city": "Portland", "addr:country": null, "addr:housenumber": "18320", "addr:postcode": "97233", "addr:state": "OR", "addr:street": "Southeast Stark Street", "addr:unit": null, "amenity": "fast_food", "brand": "McDonald's", "brand:website": "https://www.mcdonalds.com/", "brand:wikidata": "Q38076", "brand:wikipedia": "en:McDonald's", "building": "yes", "building:colour": null, "building:levels": null, "building:part": null, "building:use": null, "check_date": null, "cuisine": "burger", "delivery": null, "dog": null, "drive_through": "24/7", "ele": "76.3", "height": "6.3", "indoor_seating": null, "internet_access": "wlan", "internet_access:fee": "no", "internet_access:ssid": null, "kids_area": null, "name": "McDonald's", "name:en": null, "note": null, "opening_hours": "05:00-23:00", "opening_hours:drive_through": null, "opening_hours:url": null, "operator": null, "outdoor_seating": null, "phone": "+1-503-665-4736", "ref": null, "roof:colour": null, "roof:shape": null, "smoking": null, "source": null, "takeaway": "yes", "@geometry": "center", "big_mac": "4.59" }, "geometry": { "type": "Point", "coordinates": [ -122.4747417, 45.5186813 ] } },
{ "type": "Feature", "properties": { "id": "way/368265895", "@id": "way/368265895", "addr:city": "Portland", "addr:country": null, "addr:housenumber": "10245", "addr:postcode": "97220", "addr:state": "OR", "addr:street": "Northeast Halsey Street", "addr:unit": null, "amenity": "fast_food", "brand": "McDonald's", "brand:website": null, "brand:wikidata": "Q38076", "brand:wikipedia": "en:McDonald's", "building": "yes", "building:colour": null, "building:levels": "1", "building:part": null, "building:use": null, "check_date": null, "cuisine": "burger", "delivery": null, "dog": null, "drive_through": null, "ele": "90.1", "height": null, "indoor_seating": null, "internet_access": null, "internet_access:fee": null, "internet_access:ssid": null, "kids_area": null, "name": "McDonald's", "name:en": null, "note": null, "opening_hours": null, "opening_hours:drive_through": null, "opening_hours:url": null, "operator": null, "outdoor_seating": null, "phone": null, "ref": null, "roof:colour": null, "roof:shape": null, "smoking": null, "source": null, "takeaway": "yes", "@geometry": "center", "big_mac": "5.00" }, "geometry": { "type": "Point", "coordinates": [ -122.5570168, 45.5338629 ] } },
{ "type": "Feature", "properties": { "id": "way/368270574", "@id": "way/368270574", "addr:city": "Portland", "addr:country": null, "addr:housenumber": "3330", "addr:postcode": "97220", "addr:state": "OR", "addr:street": "Northeast 82nd Avenue", "addr:unit": null, "amenity": "fast_food", "brand": "McDonald's", "brand:website": null, "brand:wikidata": "Q38076", "brand:wikipedia": "en:McDonald's", "building": "yes", "building:colour": null, "building:levels": "1", "building:part": null, "building:use": null, "check_date": null, "cuisine": "burger", "delivery": null, "dog": null, "drive_through": null, "ele": "75.5", "height": "5.0", "indoor_seating": null, "internet_access": null, "internet_access:fee": null, "internet_access:ssid": null, "kids_area": null, "name": "McDonald's", "name:en": null, "note": null, "opening_hours": null, "opening_hours:drive_through": null, "opening_hours:url": null, "operator": null, "outdoor_seating": null, "phone": null, "ref": null, "roof:colour": null, "roof:shape": null, "smoking": null, "source": null, "takeaway": "yes", "@geometry": "center", "big_mac": "5.15" }, "geometry": { "type": "Point", "coordinates": [ -122.5783616, 45.5469737 ] } },
{ "type": "Feature", "properties": { "id": "way/368547935", "@id": "way/368547935", "addr:city": "Portland", "addr:country": null, "addr:housenumber": "12109", "addr:postcode": "97220", "addr:state": "OR", "addr:street": "Northeast Glisan Street", "addr:unit": null, "amenity": "fast_food", "brand": "McDonald's", "brand:website": "https://www.mcdonalds.com/", "brand:wikidata": "Q38076", "brand:wikipedia": "en:McDonald's", "building": "yes", "building:colour": null, "building:levels": "1", "building:part": null, "building:use": null, "check_date": null, "cuisine": "burger", "delivery": null, "dog": null, "drive_through": "24/7", "ele": "89.8", "height": "4.9", "indoor_seating": null, "internet_access": "wlan", "internet_access:fee": "no", "internet_access:ssid": null, "kids_area": null, "name": "McDonald's", "name:en": null, "note": null, "opening_hours": "05:00-23:00", "opening_hours:drive_through": null, "opening_hours:url": null, "operator": null, "outdoor_seating": null, "phone": "+1-503-252-8057", "ref": null, "roof:colour": null, "roof:shape": null, "smoking": null, "source": null, "takeaway": "yes", "@geometry": "center", "big_mac": "5.10" }, "geometry": { "type": "Point", "coordinates": [ -122.5382245, 45.5266946 ] } },
{ "type": "Feature", "properties": { "id": "way/368705457", "@id": "way/368705457", "addr:city": "Portland", "addr:country": null, "addr:housenumber": "2231", "addr:postcode": "97230", "addr:state": "OR", "addr:street": "Northeast 181st Avenue", "addr:unit": null, "amenity": "fast_food", "brand": "McDonald's", "brand:website": null, "brand:wikidata": "Q38076", "brand:wikipedia": "en:McDonald's", "building": "yes", "building:colour": null, "building:levels": null, "building:part": null, "building:use": null, "check_date": null, "cuisine": "burger", "delivery": null, "dog": null, "drive_through": null, "ele": "57.1", "height": "4.9", "indoor_seating": null, "internet_access": null, "internet_access:fee": null, "internet_access:ssid": null, "kids_area": null, "name": "McDonald's", "name:en": null, "note": null, "opening_hours": null, "opening_hours:drive_through": null, "opening_hours:url": null, "operator": null, "outdoor_seating": null, "phone": null, "ref": null, "roof:colour": null, "roof:shape": null, "smoking": null, "source": null, "takeaway": "yes", "@geometry": "center", "big_mac": "5.25" }, "geometry": { "type": "Point", "coordinates": [ -122.4777364, 45.5384517 ] } },
{ "type": "Feature", "properties": { "id": "way/369158770", "@id": "way/369158770", "addr:city": "Portland", "addr:country": null, "addr:housenumber": "9100", "addr:postcode": "97266", "addr:state": "OR", "addr:street": "Southeast Powell Boulevard", "addr:unit": null, "amenity": "fast_food", "brand": "McDonald's", "brand:website": "https://www.mcdonalds.com/", "brand:wikidata": "Q38076", "brand:wikipedia": "en:McDonald's", "building": "yes", "building:colour": null, "building:levels": "1", "building:part": null, "building:use": null, "check_date": null, "cuisine": "burger", "delivery": null, "dog": null, "drive_through": "24/7", "ele": "76.7", "height": "7.5", "indoor_seating": null, "internet_access": "wlan", "internet_access:fee": "no", "internet_access:ssid": null, "kids_area": null, "name": "McDonald's", "name:en": null, "note": null, "opening_hours": "Mo-Fr 05:00-23:00; Th-Su 05:00-24:00", "opening_hours:drive_through": null, "opening_hours:url": null, "operator": null, "outdoor_seating": null, "phone": "+1-503-775-0339", "ref": null, "roof:colour": null, "roof:shape": null, "smoking": null, "source": null, "takeaway": "yes", "@geometry": "center", "big_mac": "4.69" }, "geometry": { "type": "Point", "coordinates": [ -122.5698833, 45.4971676 ] } },
{ "type": "Feature", "properties": { "id": "way/371066439", "@id": "way/371066439", "addr:city": "Gresham", "addr:country": null, "addr:housenumber": "1567", "addr:postcode": "97030", "addr:state": null, "addr:street": "Northeast Burnside Road", "addr:unit": null, "amenity": "fast_food", "brand": "McDonald's", "brand:website": null, "brand:wikidata": "Q38076", "brand:wikipedia": "en:McDonald's", "building": "yes", "building:colour": null, "building:levels": null, "building:part": null, "building:use": null, "check_date": null, "cuisine": "burger", "delivery": null, "dog": null, "drive_through": "yes", "ele": "104.9", "height": "6.4", "indoor_seating": null, "internet_access": null, "internet_access:fee": null, "internet_access:ssid": null, "kids_area": null, "name": "McDonald's", "name:en": null, "note": null, "opening_hours": null, "opening_hours:drive_through": null, "opening_hours:url": null, "operator": "McDonald's", "outdoor_seating": null, "phone": null, "ref": null, "roof:colour": null, "roof:shape": null, "smoking": null, "source": null, "takeaway": "yes", "@geometry": "center", "big_mac": "5.00" }, "geometry": { "type": "Point", "coordinates": [ -122.4159403, 45.5040173 ] } },
{ "type": "Feature", "properties": { "id": "way/371286580", "@id": "way/371286580", "addr:city": "Gresham", "addr:country": null, "addr:housenumber": "900", "addr:postcode": "97080", "addr:state": "OR", "addr:street": "Southwest Highland Drive", "addr:unit": null, "amenity": "fast_food", "brand": "McDonald's", "brand:website": "https://www.mcdonalds.com/", "brand:wikidata": "Q38076", "brand:wikipedia": "en:McDonald's", "building": "yes", "building:colour": null, "building:levels": null, "building:part": null, "building:use": null, "check_date": null, "cuisine": "burger", "delivery": null, "dog": null, "drive_through": "Mo-Fr 04:00-24:00; Sa,Su 00:00-01:00,04:00-24:00", "ele": "88.2", "height": "5.4", "indoor_seating": null, "internet_access": "wlan", "internet_access:fee": "no", "internet_access:ssid": null, "kids_area": null, "name": "McDonald's", "name:en": null, "note": null, "opening_hours": "05:00-23:00", "opening_hours:drive_through": null, "opening_hours:url": null, "operator": null, "outdoor_seating": null, "phone": "+1-503-667-6914", "ref": null, "roof:colour": null, "roof:shape": null, "smoking": null, "source": null, "takeaway": "yes", "@geometry": "center", "big_mac": "4.59" }, "geometry": { "type": "Point", "coordinates": [ -122.4750416, 45.489799 ] } },
{ "type": "Feature", "properties": { "id": "way/371677682", "@id": "way/371677682", "addr:city": "Happy Valley", "addr:country": null, "addr:housenumber": "12440", "addr:postcode": "97086", "addr:state": null, "addr:street": "Southeast 82nd Avenue", "addr:unit": null, "amenity": "fast_food", "brand": "McDonald's", "brand:website": null, "brand:wikidata": "Q38076", "brand:wikipedia": "en:McDonald's", "building": "yes", "building:colour": null, "building:levels": null, "building:part": null, "building:use": null, "check_date": null, "cuisine": "burger", "delivery": null, "dog": null, "drive_through": "yes", "ele": "48.2", "height": "5.9", "indoor_seating": null, "internet_access": null, "internet_access:fee": null, "internet_access:ssid": null, "kids_area": null, "name": "McDonald's", "name:en": null, "note": null, "opening_hours": null, "opening_hours:drive_through": null, "opening_hours:url": null, "operator": null, "outdoor_seating": null, "phone": null, "ref": null, "roof:colour": null, "roof:shape": null, "smoking": null, "source": null, "takeaway": "yes", "@geometry": "center", "big_mac": "4.79" }, "geometry": { "type": "Point", "coordinates": [ -122.5784621, 45.4337683 ] } },
{ "type": "Feature", "properties": { "id": "way/371823919", "@id": "way/371823919", "addr:city": "Clackamas", "addr:country": null, "addr:housenumber": "15960", "addr:postcode": "97015", "addr:state": null, "addr:street": "Southeast 82nd Drive", "addr:unit": null, "amenity": "fast_food", "brand": "McDonald's", "brand:website": null, "brand:wikidata": "Q38076", "brand:wikipedia": "en:McDonald's", "building": "yes", "building:colour": null, "building:levels": null, "building:part": null, "building:use": null, "check_date": null, "cuisine": "burger", "delivery": null, "dog": null, "drive_through": "yes", "ele": "47.9", "height": "5.7", "indoor_seating": null, "internet_access": null, "internet_access:fee": null, "internet_access:ssid": null, "kids_area": null, "name": "McDonald's", "name:en": null, "note": null, "opening_hours": null, "opening_hours:drive_through": null, "opening_hours:url": null, "operator": null, "outdoor_seating": null, "phone": null, "ref": null, "roof:colour": null, "roof:shape": null, "smoking": null, "source": null, "takeaway": "yes", "@geometry": "center", "big_mac": "4.79" }, "geometry": { "type": "Point", "coordinates": [ -122.5683089, 45.4080262 ] } },
{ "type": "Feature", "properties": { "id": "way/371944176", "@id": "way/371944176", "addr:city": null, "addr:country": null, "addr:housenumber": null, "addr:postcode": "97031", "addr:state": null, "addr:street": "Cascade Avenue", "addr:unit": null, "amenity": "fast_food", "brand": "McDonald's", "brand:website": null, "brand:wikidata": "Q38076", "brand:wikipedia": "en:McDonald's", "building": "yes", "building:colour": null, "building:levels": null, "building:part": null, "building:use": null, "check_date": null, "cuisine": "burger", "delivery": null, "dog": null, "drive_through": "yes", "ele": null, "height": null, "indoor_seating": null, "internet_access": "wlan", "internet_access:fee": null, "internet_access:ssid": null, "kids_area": null, "name": "McDonald's", "name:en": null, "note": null, "opening_hours": null, "opening_hours:drive_through": null, "opening_hours:url": null, "operator": null, "outdoor_seating": null, "phone": null, "ref": null, "roof:colour": null, "roof:shape": null, "smoking": null, "source": null, "takeaway": "yes", "@geometry": "center", "big_mac": "5.25" }, "geometry": { "type": "Point", "coordinates": [ -121.5339711, 45.7095525 ] } },
{ "type": "Feature", "properties": { "id": "way/377866943", "@id": "way/377866943", "addr:city": "Bend", "addr:country": null, "addr:housenumber": "1151", "addr:postcode": "97702", "addr:state": "OR", "addr:street": "Southeast 3rd Street", "addr:unit": null, "amenity": "fast_food", "brand": "McDonald's", "brand:website": "https://www.mcdonalds.com/", "brand:wikidata": "Q38076", "brand:wikipedia": "en:McDonald's", "building": "yes", "building:colour": null, "building:levels": null, "building:part": null, "building:use": null, "check_date": null, "cuisine": "burger", "delivery": null, "dog": null, "drive_through": "yes", "ele": null, "height": null, "indoor_seating": null, "internet_access": null, "internet_access:fee": null, "internet_access:ssid": null, "kids_area": null, "name": "McDonald's", "name:en": null, "note": null, "opening_hours": "05:00-24:00", "opening_hours:drive_through": null, "opening_hours:url": null, "operator": null, "outdoor_seating": null, "phone": "+1-541-389-8222", "ref": null, "roof:colour": null, "roof:shape": null, "smoking": null, "source": null, "takeaway": "yes", "@geometry": "center", "big_mac": "6.50" }, "geometry": { "type": "Point", "coordinates": [ -121.3049696, 44.0379075 ] } },
{ "type": "Feature", "properties": { "id": "way/379042398", "@id": "way/379042398", "addr:city": null, "addr:country": null, "addr:housenumber": null, "addr:postcode": null, "addr:state": null, "addr:street": null, "addr:unit": null, "amenity": "fast_food", "brand": "McDonald's", "brand:website": null, "brand:wikidata": "Q38076", "brand:wikipedia": "en:McDonald's", "building": "yes", "building:colour": null, "building:levels": null, "building:part": null, "building:use": null, "check_date": null, "cuisine": "burger", "delivery": null, "dog": null, "drive_through": null, "ele": null, "height": null, "indoor_seating": null, "internet_access": null, "internet_access:fee": null, "internet_access:ssid": null, "kids_area": null, "name": "McDonald's", "name:en": null, "note": null, "opening_hours": null, "opening_hours:drive_through": null, "opening_hours:url": null, "operator": null, "outdoor_seating": null, "phone": null, "ref": null, "roof:colour": null, "roof:shape": null, "smoking": null, "source": null, "takeaway": "yes", "@geometry": "center", "big_mac": "5.15" }, "geometry": { "type": "Point", "coordinates": [ -122.8772268, 45.7406602 ] } },
{ "type": "Feature", "properties": { "id": "way/382802975", "@id": "way/382802975", "addr:city": "Saint Helens", "addr:country": null, "addr:housenumber": "58771", "addr:postcode": "97051", "addr:state": "OR", "addr:street": "Columbia River Highway", "addr:unit": null, "amenity": "fast_food", "brand": "McDonald's", "brand:website": "https://www.mcdonalds.com/", "brand:wikidata": "Q38076", "brand:wikipedia": "en:McDonald's", "building": "yes", "building:colour": null, "building:levels": null, "building:part": null, "building:use": null, "check_date": null, "cuisine": "burger", "delivery": null, "dog": null, "drive_through": "24/7", "ele": null, "height": null, "indoor_seating": null, "internet_access": "wlan", "internet_access:fee": "no", "internet_access:ssid": null, "kids_area": null, "name": "McDonald's", "name:en": null, "note": null, "opening_hours": "05:00-23:00", "opening_hours:drive_through": null, "opening_hours:url": null, "operator": null, "outdoor_seating": null, "phone": "+1-503-397-6164", "ref": null, "roof:colour": null, "roof:shape": null, "smoking": null, "source": null, "takeaway": "yes", "@geometry": "center", "big_mac": "5.15" }, "geometry": { "type": "Point", "coordinates": [ -122.8326969, 45.8484161 ] } },
{ "type": "Feature", "properties": { "id": "way/407304879", "@id": "way/407304879", "addr:city": "Keizer", "addr:country": null, "addr:housenumber": "6025", "addr:postcode": "97303", "addr:state": "OR", "addr:street": "Keizer Station Boulevard Northeast", "addr:unit": null, "amenity": "fast_food", "brand": "McDonald's", "brand:website": null, "brand:wikidata": "Q38076", "brand:wikipedia": "en:McDonald's", "building": "yes", "building:colour": null, "building:levels": null, "building:part": null, "building:use": null, "check_date": null, "cuisine": "burger", "delivery": "no", "dog": null, "drive_through": "yes", "ele": null, "height": null, "indoor_seating": null, "internet_access": null, "internet_access:fee": null, "internet_access:ssid": null, "kids_area": null, "name": "McDonald's", "name:en": null, "note": null, "opening_hours": null, "opening_hours:drive_through": null, "opening_hours:url": null, "operator": null, "outdoor_seating": null, "phone": null, "ref": null, "roof:colour": null, "roof:shape": null, "smoking": null, "source": null, "takeaway": "yes", "@geometry": "center", "big_mac": "4.50" }, "geometry": { "type": "Point", "coordinates": [ -122.998396, 45.0082319 ] } },
{ "type": "Feature", "properties": { "id": "way/409611934", "@id": "way/409611934", "addr:city": "La Grande", "addr:country": null, "addr:housenumber": "2308", "addr:postcode": "97850", "addr:state": "OR", "addr:street": "Island Avenue", "addr:unit": null, "amenity": "fast_food", "brand": "McDonald's", "brand:website": null, "brand:wikidata": "Q38076", "brand:wikipedia": "en:McDonald's", "building": "retail", "building:colour": null, "building:levels": "1", "building:part": null, "building:use": null, "check_date": null, "cuisine": "burger", "delivery": "no", "dog": null, "drive_through": "yes", "ele": null, "height": null, "indoor_seating": null, "internet_access": null, "internet_access:fee": null, "internet_access:ssid": null, "kids_area": null, "name": "McDonald's", "name:en": null, "note": null, "opening_hours": "05:00-24:00", "opening_hours:drive_through": null, "opening_hours:url": null, "operator": null, "outdoor_seating": null, "phone": "+1 541-963-9015", "ref": null, "roof:colour": null, "roof:shape": null, "smoking": null, "source": null, "takeaway": "yes", "@geometry": "center", "big_mac": "5.69" }, "geometry": { "type": "Point", "coordinates": [ -118.075495, 45.3300505 ] } },
{ "type": "Feature", "properties": { "id": "way/414891844", "@id": "way/414891844", "addr:city": null, "addr:country": null, "addr:housenumber": null, "addr:postcode": null, "addr:state": null, "addr:street": null, "addr:unit": null, "amenity": "fast_food", "brand": "McDonald's", "brand:website": null, "brand:wikidata": "Q38076", "brand:wikipedia": "en:McDonald's", "building": "yes", "building:colour": null, "building:levels": null, "building:part": null, "building:use": null, "check_date": null, "cuisine": "burger", "delivery": null, "dog": null, "drive_through": null, "ele": null, "height": null, "indoor_seating": null, "internet_access": null, "internet_access:fee": null, "internet_access:ssid": null, "kids_area": null, "name": "McDonald's", "name:en": null, "note": null, "opening_hours": null, "opening_hours:drive_through": null, "opening_hours:url": null, "operator": null, "outdoor_seating": null, "phone": null, "ref": null, "roof:colour": null, "roof:shape": null, "smoking": null, "source": null, "takeaway": "yes", "@geometry": "center", "big_mac": "5.69" }, "geometry": { "type": "Point", "coordinates": [ -118.8097456, 45.6566579 ] } },
{ "type": "Feature", "properties": { "id": "way/414901067", "@id": "way/414901067", "addr:city": "Astoria", "addr:country": null, "addr:housenumber": "645", "addr:postcode": "97103", "addr:state": "OR", "addr:street": "Marine Drive", "addr:unit": null, "amenity": "fast_food", "brand": "McDonald's", "brand:website": null, "brand:wikidata": "Q38076", "brand:wikipedia": "en:McDonald's", "building": "yes", "building:colour": null, "building:levels": null, "building:part": null, "building:use": null, "check_date": null, "cuisine": "burger", "delivery": null, "dog": null, "drive_through": "yes", "ele": null, "height": null, "indoor_seating": null, "internet_access": null, "internet_access:fee": null, "internet_access:ssid": null, "kids_area": null, "name": "McDonald's", "name:en": null, "note": null, "opening_hours": null, "opening_hours:drive_through": null, "opening_hours:url": null, "operator": null, "outdoor_seating": null, "phone": "503-325-4168", "ref": null, "roof:colour": null, "roof:shape": null, "smoking": null, "source": null, "takeaway": "yes", "@geometry": "center", "big_mac": "6.39" }, "geometry": { "type": "Point", "coordinates": [ -123.835941, 46.1900826 ] } },
{ "type": "Feature", "properties": { "id": "way/418198693", "@id": "way/418198693", "addr:city": "Tualatin", "addr:country": null, "addr:housenumber": "6800", "addr:postcode": "97062", "addr:state": "OR", "addr:street": "Southwest Nyberg Street", "addr:unit": null, "amenity": "fast_food", "brand": "McDonald's", "brand:website": "https://www.mcdonalds.com/", "brand:wikidata": "Q38076", "brand:wikipedia": "en:McDonald's", "building": "yes", "building:colour": null, "building:levels": null, "building:part": null, "building:use": null, "check_date": null, "cuisine": "burger", "delivery": null, "dog": null, "drive_through": "05:00-24:00", "ele": null, "height": null, "indoor_seating": null, "internet_access": "wlan", "internet_access:fee": "no", "internet_access:ssid": null, "kids_area": null, "name": "McDonald's", "name:en": null, "note": null, "opening_hours": "05:00-23:00", "opening_hours:drive_through": null, "opening_hours:url": null, "operator": null, "outdoor_seating": null, "phone": "+1-503-691-2724", "ref": null, "roof:colour": null, "roof:shape": null, "smoking": null, "source": null, "takeaway": "yes", "@geometry": "center", "big_mac": "5.45" }, "geometry": { "type": "Point", "coordinates": [ -122.7465044, 45.3824043 ] } },
{ "type": "Feature", "properties": { "id": "way/419793160", "@id": "way/419793160", "addr:city": "Salem", "addr:country": null, "addr:housenumber": "5090", "addr:postcode": "97306", "addr:state": "OR", "addr:street": "Commercial Street Southeast", "addr:unit": null, "amenity": "fast_food", "brand": "McDonald's", "brand:website": null, "brand:wikidata": "Q38076", "brand:wikipedia": "en:McDonald's", "building": "yes", "building:colour": null, "building:levels": null, "building:part": null, "building:use": null, "check_date": null, "cuisine": "burger", "delivery": "no", "dog": null, "drive_through": null, "ele": null, "height": null, "indoor_seating": null, "internet_access": null, "internet_access:fee": null, "internet_access:ssid": null, "kids_area": null, "name": "McDonald's", "name:en": null, "note": null, "opening_hours": "24/7", "opening_hours:drive_through": null, "opening_hours:url": null, "operator": null, "outdoor_seating": null, "phone": "(503) 391-6641", "ref": null, "roof:colour": null, "roof:shape": null, "smoking": null, "source": null, "takeaway": "yes", "@geometry": "center", "big_mac": "4.50" }, "geometry": { "type": "Point", "coordinates": [ -123.0292361, 44.8810019 ] } },
{ "type": "Feature", "properties": { "id": "way/436266312", "@id": "way/436266312", "addr:city": "Tigard", "addr:country": null, "addr:housenumber": "16200", "addr:postcode": "97224", "addr:state": "OR", "addr:street": "Southwest Pacific Highway", "addr:unit": null, "amenity": "fast_food", "brand": "McDonald's", "brand:website": "https://www.mcdonalds.com/", "brand:wikidata": "Q38076", "brand:wikipedia": "en:McDonald's", "building": "yes", "building:colour": null, "building:levels": null, "building:part": null, "building:use": null, "check_date": null, "cuisine": "burger", "delivery": null, "dog": null, "drive_through": null, "ele": null, "height": null, "indoor_seating": null, "internet_access": "wlan", "internet_access:fee": "no", "internet_access:ssid": null, "kids_area": null, "name": "McDonald's", "name:en": null, "note": null, "opening_hours": null, "opening_hours:drive_through": null, "opening_hours:url": null, "operator": null, "outdoor_seating": null, "phone": "+1-503-620-8343", "ref": null, "roof:colour": null, "roof:shape": null, "smoking": null, "source": null, "takeaway": "yes", "@geometry": "center", "big_mac": "4.50" }, "geometry": { "type": "Point", "coordinates": [ -122.7965875, 45.4036755 ] } },
{ "type": "Feature", "properties": { "id": "way/437879135", "@id": "way/437879135", "addr:city": null, "addr:country": null, "addr:housenumber": null, "addr:postcode": null, "addr:state": null, "addr:street": null, "addr:unit": null, "amenity": "fast_food", "brand": "McDonald's", "brand:website": null, "brand:wikidata": "Q38076", "brand:wikipedia": null, "building": "yes", "building:colour": null, "building:levels": null, "building:part": null, "building:use": null, "check_date": null, "cuisine": "burger", "delivery": null, "dog": null, "drive_through": null, "ele": null, "height": null, "indoor_seating": null, "internet_access": null, "internet_access:fee": null, "internet_access:ssid": null, "kids_area": null, "name": "McDonald's", "name:en": null, "note": null, "opening_hours": null, "opening_hours:drive_through": null, "opening_hours:url": null, "operator": null, "outdoor_seating": null, "phone": null, "ref": null, "roof:colour": null, "roof:shape": null, "smoking": null, "source": null, "takeaway": "yes", "@geometry": "center", "big_mac": "5.00" }, "geometry": { "type": "Point", "coordinates": [ -123.1818493, 45.2270092 ] } },
{ "type": "Feature", "properties": { "id": "way/437949436", "@id": "way/437949436", "addr:city": "Happy Valley", "addr:country": null, "addr:housenumber": "13470", "addr:postcode": "97015", "addr:state": "OR", "addr:street": "Southeast Highway 212", "addr:unit": null, "amenity": "fast_food", "brand": "McDonald's", "brand:website": "https://www.mcdonalds.com/", "brand:wikidata": "Q38076", "brand:wikipedia": "en:McDonald's", "building": "yes", "building:colour": null, "building:levels": null, "building:part": null, "building:use": null, "check_date": null, "cuisine": "burger", "delivery": null, "dog": null, "drive_through": "24/7", "ele": null, "height": null, "indoor_seating": null, "internet_access": "wlan", "internet_access:fee": "no", "internet_access:ssid": null, "kids_area": null, "name": "McDonald's", "name:en": null, "note": null, "opening_hours": "Mo-Su 05:00-23:00; Fr,Sa 05:00-24:00", "opening_hours:drive_through": null, "opening_hours:url": null, "operator": null, "outdoor_seating": null, "phone": "+1-503-627-2855", "ref": null, "roof:colour": null, "roof:shape": null, "smoking": null, "source": null, "takeaway": "yes", "@geometry": "center", "big_mac": "4.99" }, "geometry": { "type": "Point", "coordinates": [ -122.5258205, 45.4097938 ] } },
{ "type": "Feature", "properties": { "id": "way/438300816", "@id": "way/438300816", "addr:city": "Madras", "addr:country": null, "addr:housenumber": "28", "addr:postcode": "97741", "addr:state": null, "addr:street": "Northeast Oak Street", "addr:unit": null, "amenity": "fast_food", "brand": "McDonald's", "brand:website": null, "brand:wikidata": "Q38076", "brand:wikipedia": "en:McDonald's", "building": "yes", "building:colour": null, "building:levels": null, "building:part": null, "building:use": null, "check_date": null, "cuisine": "burger", "delivery": null, "dog": null, "drive_through": "yes", "ele": null, "height": null, "indoor_seating": null, "internet_access": null, "internet_access:fee": null, "internet_access:ssid": null, "kids_area": null, "name": "McDonald's", "name:en": null, "note": null, "opening_hours": null, "opening_hours:drive_through": null, "opening_hours:url": null, "operator": null, "outdoor_seating": null, "phone": "+1-541-475-3580", "ref": null, "roof:colour": null, "roof:shape": null, "smoking": null, "source": null, "takeaway": "yes", "@geometry": "center", "big_mac": "6.50" }, "geometry": { "type": "Point", "coordinates": [ -121.1291227, 44.6398615 ] } },
{ "type": "Feature", "properties": { "id": "way/455887740", "@id": "way/455887740", "addr:city": null, "addr:country": null, "addr:housenumber": null, "addr:postcode": null, "addr:state": null, "addr:street": null, "addr:unit": null, "amenity": "fast_food", "brand": "McDonald's", "brand:website": null, "brand:wikidata": "Q38076", "brand:wikipedia": "en:McDonald's", "building": "yes", "building:colour": null, "building:levels": null, "building:part": null, "building:use": null, "check_date": null, "cuisine": "burger", "delivery": null, "dog": null, "drive_through": null, "ele": null, "height": null, "indoor_seating": null, "internet_access": null, "internet_access:fee": null, "internet_access:ssid": null, "kids_area": null, "name": "McDonald's", "name:en": null, "note": null, "opening_hours": null, "opening_hours:drive_through": null, "opening_hours:url": null, "operator": null, "outdoor_seating": null, "phone": null, "ref": null, "roof:colour": null, "roof:shape": null, "smoking": null, "source": null, "takeaway": "yes", "@geometry": "center", "big_mac": "4.20" }, "geometry": { "type": "Point", "coordinates": [ -122.8615376, 42.3161901 ] } },
{ "type": "Feature", "properties": { "id": "way/461786840", "@id": "way/461786840", "addr:city": "Portland", "addr:country": null, "addr:housenumber": "8011", "addr:postcode": "97211", "addr:state": "OR", "addr:street": "Northeast Martin Luther King Junior Boulevard", "addr:unit": null, "amenity": "fast_food", "brand": "McDonald's", "brand:website": "https://www.mcdonalds.com/", "brand:wikidata": "Q38076", "brand:wikipedia": "en:McDonald's", "building": "yes", "building:colour": null, "building:levels": null, "building:part": null, "building:use": null, "check_date": null, "cuisine": "burger", "delivery": null, "dog": null, "drive_through": "24/7", "ele": null, "height": null, "indoor_seating": null, "internet_access": "wlan", "internet_access:fee": "no", "internet_access:ssid": null, "kids_area": null, "name": "McDonald's", "name:en": null, "note": null, "opening_hours": "05:00-23:00", "opening_hours:drive_through": null, "opening_hours:url": null, "operator": null, "outdoor_seating": null, "phone": "+1-503-283-6733", "ref": null, "roof:colour": null, "roof:shape": null, "smoking": null, "source": null, "takeaway": "yes", "@geometry": "center", "big_mac": "5.75" }, "geometry": { "type": "Point", "coordinates": [ -122.6620605, 45.5816918 ] } },
{ "type": "Feature", "properties": { "id": "way/463368808", "@id": "way/463368808", "addr:city": "Oak Grove", "addr:country": null, "addr:housenumber": "15870", "addr:postcode": "97267", "addr:state": "OR", "addr:street": "Southeast McLoughlin Boulevard", "addr:unit": null, "amenity": "fast_food", "brand": "McDonald's", "brand:website": "https://www.mcdonalds.com/", "brand:wikidata": "Q38076", "brand:wikipedia": "en:McDonald's", "building": "yes", "building:colour": null, "building:levels": null, "building:part": null, "building:use": null, "check_date": null, "cuisine": "burger", "delivery": null, "dog": null, "drive_through": "Mo-Fr 05:00-24:00; Sa,Su 00:00-02:00,05:00-24:00", "ele": null, "height": null, "indoor_seating": null, "internet_access": "wlan", "internet_access:fee": "no", "internet_access:ssid": null, "kids_area": null, "name": "McDonald's", "name:en": null, "note": null, "opening_hours": "Mo-Su 05:00-22:00; Fr,Sa 05:00-23:00", "opening_hours:drive_through": null, "opening_hours:url": null, "operator": null, "outdoor_seating": null, "phone": null, "ref": null, "roof:colour": null, "roof:shape": null, "smoking": null, "source": null, "takeaway": "yes", "@geometry": "center", "big_mac": "4.95" }, "geometry": { "type": "Point", "coordinates": [ -122.6249512, 45.4078988 ] } },
{ "type": "Feature", "properties": { "id": "way/463559856", "@id": "way/463559856", "addr:city": null, "addr:country": null, "addr:housenumber": null, "addr:postcode": null, "addr:state": null, "addr:street": null, "addr:unit": null, "amenity": "fast_food", "brand": "McDonald's", "brand:website": null, "brand:wikidata": "Q38076", "brand:wikipedia": "en:McDonald's", "building": "yes", "building:colour": null, "building:levels": null, "building:part": null, "building:use": null, "check_date": null, "cuisine": "burger", "delivery": null, "dog": null, "drive_through": null, "ele": null, "height": null, "indoor_seating": null, "internet_access": null, "internet_access:fee": null, "internet_access:ssid": null, "kids_area": null, "name": "McDonald's", "name:en": null, "note": null, "opening_hours": null, "opening_hours:drive_through": null, "opening_hours:url": null, "operator": null, "outdoor_seating": null, "phone": null, "ref": null, "roof:colour": null, "roof:shape": null, "smoking": null, "source": null, "takeaway": "yes", "@geometry": "center", "big_mac": "5.60" }, "geometry": { "type": "Point", "coordinates": [ -124.1009523, 43.9845611 ] } },
{ "type": "Feature", "properties": { "id": "way/471865209", "@id": "way/471865209", "addr:city": "Hillsboro", "addr:country": null, "addr:housenumber": "6399", "addr:postcode": "97124", "addr:state": "OR", "addr:street": "Northeast Cornelius Pass Road", "addr:unit": null, "amenity": "fast_food", "brand": "McDonald's", "brand:website": "https://www.mcdonalds.com/", "brand:wikidata": "Q38076", "brand:wikipedia": "en:McDonald's", "building": "yes", "building:colour": null, "building:levels": null, "building:part": null, "building:use": null, "check_date": null, "cuisine": "burger", "delivery": null, "dog": null, "drive_through": "yes", "ele": null, "height": null, "indoor_seating": null, "internet_access": "wlan", "internet_access:fee": "no", "internet_access:ssid": null, "kids_area": null, "name": "McDonald's", "name:en": null, "note": null, "opening_hours": "Mo-Su 04:30-23:00; Fr,Sa 04:30-00:00", "opening_hours:drive_through": null, "opening_hours:url": null, "operator": null, "outdoor_seating": null, "phone": "+1-503-439-0090", "ref": null, "roof:colour": null, "roof:shape": null, "smoking": null, "source": null, "takeaway": "yes", "@geometry": "center", "big_mac": "5.45" }, "geometry": { "type": "Point", "coordinates": [ -122.8946988, 45.5662241 ] } },
{ "type": "Feature", "properties": { "id": "way/474539217", "@id": "way/474539217", "addr:city": null, "addr:country": null, "addr:housenumber": "1110", "addr:postcode": null, "addr:state": null, "addr:street": "Center Street Northeast", "addr:unit": null, "amenity": "fast_food", "brand": "McDonald's", "brand:website": null, "brand:wikidata": "Q38076", "brand:wikipedia": "en:McDonald's", "building": "retail", "building:colour": null, "building:levels": "1", "building:part": null, "building:use": null, "check_date": null, "cuisine": "burger", "delivery": null, "dog": null, "drive_through": null, "ele": null, "height": null, "indoor_seating": null, "internet_access": null, "internet_access:fee": null, "internet_access:ssid": null, "kids_area": null, "name": "McDonald's", "name:en": null, "note": null, "opening_hours": "Mo-Th,Su 05:00-23:00; Fr-Sa 05:00-24:00", "opening_hours:drive_through": null, "opening_hours:url": null, "operator": null, "outdoor_seating": null, "phone": null, "ref": null, "roof:colour": null, "roof:shape": null, "smoking": null, "source": null, "takeaway": "yes", "@geometry": "center", "big_mac": "4.50" }, "geometry": { "type": "Point", "coordinates": [ -123.0270137, 44.940325 ] } },
{ "type": "Feature", "properties": { "id": "way/484380306", "@id": "way/484380306", "addr:city": null, "addr:country": null, "addr:housenumber": null, "addr:postcode": null, "addr:state": null, "addr:street": null, "addr:unit": null, "amenity": "fast_food", "brand": "McDonald's", "brand:website": null, "brand:wikidata": "Q38076", "brand:wikipedia": "en:McDonald's", "building": "yes", "building:colour": null, "building:levels": null, "building:part": null, "building:use": null, "check_date": null, "cuisine": "burger", "delivery": null, "dog": null, "drive_through": null, "ele": null, "height": null, "indoor_seating": null, "internet_access": null, "internet_access:fee": null, "internet_access:ssid": null, "kids_area": null, "name": "McDonald's", "name:en": null, "note": null, "opening_hours": null, "opening_hours:drive_through": null, "opening_hours:url": null, "operator": null, "outdoor_seating": null, "phone": null, "ref": null, "roof:colour": null, "roof:shape": null, "smoking": null, "source": null, "takeaway": "yes", "@geometry": "center", "big_mac": "4.50" }, "geometry": { "type": "Point", "coordinates": [ -122.9488057, 45.3062849 ] } },
{ "type": "Feature", "properties": { "id": "way/488940119", "@id": "way/488940119", "addr:city": null, "addr:country": null, "addr:housenumber": null, "addr:postcode": null, "addr:state": null, "addr:street": null, "addr:unit": null, "amenity": "fast_food", "brand": "McDonald's", "brand:website": null, "brand:wikidata": "Q38076", "brand:wikipedia": "en:McDonald's", "building": "yes", "building:colour": null, "building:levels": null, "building:part": null, "building:use": null, "check_date": null, "cuisine": "burger", "delivery": null, "dog": null, "drive_through": "yes", "ele": null, "height": null, "indoor_seating": null, "internet_access": null, "internet_access:fee": null, "internet_access:ssid": null, "kids_area": null, "name": "McDonald's", "name:en": null, "note": null, "opening_hours": null, "opening_hours:drive_through": null, "opening_hours:url": null, "operator": null, "outdoor_seating": null, "phone": null, "ref": null, "roof:colour": null, "roof:shape": null, "smoking": null, "source": null, "takeaway": "yes", "@geometry": "center", "big_mac": "5.49" }, "geometry": { "type": "Point", "coordinates": [ -119.2895844, 45.8498136 ] } },
{ "type": "Feature", "properties": { "id": "way/496715884", "@id": "way/496715884", "addr:city": null, "addr:country": null, "addr:housenumber": null, "addr:postcode": null, "addr:state": null, "addr:street": null, "addr:unit": null, "amenity": "fast_food", "brand": "McDonald's", "brand:website": null, "brand:wikidata": "Q38076", "brand:wikipedia": "en:McDonald's", "building": "yes", "building:colour": null, "building:levels": null, "building:part": null, "building:use": null, "check_date": null, "cuisine": "burger", "delivery": null, "dog": null, "drive_through": null, "ele": null, "height": null, "indoor_seating": null, "internet_access": null, "internet_access:fee": null, "internet_access:ssid": null, "kids_area": null, "name": "McDonald's", "name:en": null, "note": null, "opening_hours": null, "opening_hours:drive_through": null, "opening_hours:url": null, "operator": null, "outdoor_seating": null, "phone": null, "ref": null, "roof:colour": null, "roof:shape": null, "smoking": null, "source": null, "takeaway": "yes", "@geometry": "center", "big_mac": "6.39" }, "geometry": { "type": "Point", "coordinates": [ -123.8437544, 45.4691285 ] } },
{ "type": "Feature", "properties": { "id": "way/502967604", "@id": "way/502967604", "addr:city": "Bend", "addr:country": null, "addr:housenumber": "2000", "addr:postcode": "97701", "addr:state": "OR", "addr:street": "Northeast 3rd Street", "addr:unit": "100", "amenity": "fast_food", "brand": "McDonald's", "brand:website": null, "brand:wikidata": "Q38076", "brand:wikipedia": "en:McDonald's", "building": "yes", "building:colour": null, "building:levels": null, "building:part": null, "building:use": null, "check_date": null, "cuisine": "burger", "delivery": null, "dog": null, "drive_through": "yes", "ele": null, "height": null, "indoor_seating": null, "internet_access": "wlan", "internet_access:fee": "no", "internet_access:ssid": null, "kids_area": null, "name": "McDonald's", "name:en": null, "note": null, "opening_hours": "Mo-Su 04:30-23:00; Fr,Sa 04:30-24:00", "opening_hours:drive_through": null, "opening_hours:url": null, "operator": null, "outdoor_seating": null, "phone": "+1-541-389-3665", "ref": null, "roof:colour": null, "roof:shape": null, "smoking": "outside", "source": null, "takeaway": "yes", "@geometry": "center", "big_mac": "6.50" }, "geometry": { "type": "Point", "coordinates": [ -121.3020759, 44.0702617 ] } },
{ "type": "Feature", "properties": { "id": "way/504051039", "@id": "way/504051039", "addr:city": "Bend", "addr:country": null, "addr:housenumber": "220", "addr:postcode": "97702", "addr:state": "OR", "addr:street": "Southwest Century Drive", "addr:unit": null, "amenity": "fast_food", "brand": "McDonald's", "brand:website": "https://www.mcdonalds.com/", "brand:wikidata": "Q38076", "brand:wikipedia": "en:McDonald's", "building": "yes", "building:colour": null, "building:levels": null, "building:part": null, "building:use": null, "check_date": null, "cuisine": "burger", "delivery": null, "dog": null, "drive_through": "yes", "ele": null, "height": null, "indoor_seating": null, "internet_access": null, "internet_access:fee": null, "internet_access:ssid": null, "kids_area": null, "name": "McDonald's", "name:en": null, "note": null, "opening_hours": "05:30-23:00", "opening_hours:drive_through": null, "opening_hours:url": null, "operator": null, "outdoor_seating": null, "phone": "+1-541-389-8324", "ref": null, "roof:colour": null, "roof:shape": null, "smoking": null, "source": null, "takeaway": "yes", "@geometry": "center", "big_mac": "6.50" }, "geometry": { "type": "Point", "coordinates": [ -121.3314131, 44.0484175 ] } },
{ "type": "Feature", "properties": { "id": "way/504318372", "@id": "way/504318372", "addr:city": "Bend", "addr:country": null, "addr:housenumber": "2640", "addr:postcode": "97701", "addr:state": "OR", "addr:street": "Northeast Highway 20", "addr:unit": null, "amenity": "fast_food", "brand": "McDonald's", "brand:website": "https://www.mcdonalds.com/", "brand:wikidata": "Q38076", "brand:wikipedia": "en:McDonald's", "building": "yes", "building:colour": null, "building:levels": null, "building:part": null, "building:use": null, "check_date": null, "cuisine": "burger", "delivery": null, "dog": null, "drive_through": null, "ele": null, "height": null, "indoor_seating": null, "internet_access": "wlan", "internet_access:fee": "no", "internet_access:ssid": null, "kids_area": null, "name": "McDonald's", "name:en": null, "note": null, "opening_hours": "05:00-23:00", "opening_hours:drive_through": null, "opening_hours:url": null, "operator": null, "outdoor_seating": null, "phone": "+1-541-389-8122", "ref": null, "roof:colour": null, "roof:shape": null, "smoking": null, "source": null, "takeaway": "yes", "@geometry": "center", "big_mac": "6.50" }, "geometry": { "type": "Point", "coordinates": [ -121.265968, 44.0552271 ] } },
{ "type": "Feature", "properties": { "id": "way/511889340", "@id": "way/511889340", "addr:city": "Ontario", "addr:country": null, "addr:housenumber": "1690", "addr:postcode": "97914", "addr:state": "OR", "addr:street": "East Idaho Avenue", "addr:unit": null, "amenity": "fast_food", "brand": "McDonald's", "brand:website": null, "brand:wikidata": "Q38076", "brand:wikipedia": null, "building": "yes", "building:colour": null, "building:levels": null, "building:part": null, "building:use": null, "check_date": null, "cuisine": "burger", "delivery": null, "dog": null, "drive_through": null, "ele": null, "height": null, "indoor_seating": null, "internet_access": null, "internet_access:fee": null, "internet_access:ssid": null, "kids_area": null, "name": "McDonald's", "name:en": null, "note": null, "opening_hours": null, "opening_hours:drive_through": null, "opening_hours:url": null, "operator": null, "outdoor_seating": null, "phone": null, "ref": null, "roof:colour": null, "roof:shape": null, "smoking": null, "source": null, "takeaway": "yes", "@geometry": "center", "big_mac": "5.49" }, "geometry": { "type": "Point", "coordinates": [ -116.9408167, 44.0240637 ] } },
{ "type": "Feature", "properties": { "id": "way/521926559", "@id": "way/521926559", "addr:city": null, "addr:country": null, "addr:housenumber": "5701", "addr:postcode": "97478", "addr:state": null, "addr:street": "Main Street", "addr:unit": null, "amenity": "fast_food", "brand": "McDonald's", "brand:website": null, "brand:wikidata": "Q38076", "brand:wikipedia": "en:McDonald's", "building": "yes", "building:colour": null, "building:levels": null, "building:part": null, "building:use": null, "check_date": null, "cuisine": "burger", "delivery": null, "dog": null, "drive_through": "yes", "ele": null, "height": null, "indoor_seating": null, "internet_access": null, "internet_access:fee": null, "internet_access:ssid": null, "kids_area": null, "name": "McDonald's", "name:en": null, "note": null, "opening_hours": "Mo-Th 05:00-23:00, Fr-Sa 05:00-01:00, Su 05:00-23:00", "opening_hours:drive_through": null, "opening_hours:url": null, "operator": null, "outdoor_seating": null, "phone": null, "ref": null, "roof:colour": null, "roof:shape": null, "smoking": null, "source": null, "takeaway": "yes", "@geometry": "center", "big_mac": "5.50" }, "geometry": { "type": "Point", "coordinates": [ -122.9291362, 44.0453676 ] } },
{ "type": "Feature", "properties": { "id": "way/546132524", "@id": "way/546132524", "addr:city": null, "addr:country": null, "addr:housenumber": "570", "addr:postcode": null, "addr:state": null, "addr:street": "Wallace Road Northwest", "addr:unit": null, "amenity": "fast_food", "brand": "McDonald's", "brand:website": null, "brand:wikidata": "Q38076", "brand:wikipedia": "en:McDonald's", "building": "yes", "building:colour": null, "building:levels": null, "building:part": null, "building:use": null, "check_date": null, "cuisine": "burger", "delivery": null, "dog": null, "drive_through": "yes", "ele": null, "height": null, "indoor_seating": null, "internet_access": null, "internet_access:fee": null, "internet_access:ssid": null, "kids_area": null, "name": "McDonald's", "name:en": null, "note": null, "opening_hours": "24/7", "opening_hours:drive_through": null, "opening_hours:url": null, "operator": null, "outdoor_seating": null, "phone": null, "ref": null, "roof:colour": null, "roof:shape": null, "smoking": null, "source": null, "takeaway": "yes", "@geometry": "center", "big_mac": "4.50" }, "geometry": { "type": "Point", "coordinates": [ -123.0498424, 44.9472497 ] } },
{ "type": "Feature", "properties": { "id": "way/551148117", "@id": "way/551148117", "addr:city": null, "addr:country": null, "addr:housenumber": null, "addr:postcode": null, "addr:state": null, "addr:street": null, "addr:unit": null, "amenity": "fast_food", "brand": "McDonald's", "brand:website": null, "brand:wikidata": "Q38076", "brand:wikipedia": "en:McDonald's", "building": "yes", "building:colour": null, "building:levels": null, "building:part": null, "building:use": null, "check_date": null, "cuisine": "burger", "delivery": null, "dog": null, "drive_through": null, "ele": null, "height": null, "indoor_seating": null, "internet_access": "wlan", "internet_access:fee": null, "internet_access:ssid": null, "kids_area": null, "name": "McDonald's", "name:en": null, "note": null, "opening_hours": null, "opening_hours:drive_through": null, "opening_hours:url": null, "operator": null, "outdoor_seating": null, "phone": null, "ref": null, "roof:colour": null, "roof:shape": null, "smoking": null, "source": null, "takeaway": "yes", "@geometry": "center", "big_mac": "5.99" }, "geometry": { "type": "Point", "coordinates": [ -124.2871902, 42.0533462 ] } },
{ "type": "Feature", "properties": { "id": "way/574651467", "@id": "way/574651467", "addr:city": null, "addr:country": null, "addr:housenumber": null, "addr:postcode": null, "addr:state": null, "addr:street": null, "addr:unit": null, "amenity": "fast_food", "brand": "McDonald's", "brand:website": null, "brand:wikidata": "Q38076", "brand:wikipedia": "en:McDonald's", "building": "yes", "building:colour": null, "building:levels": null, "building:part": null, "building:use": null, "check_date": null, "cuisine": "burger", "delivery": null, "dog": null, "drive_through": "yes", "ele": null, "height": null, "indoor_seating": null, "internet_access": null, "internet_access:fee": null, "internet_access:ssid": null, "kids_area": null, "name": "McDonald's", "name:en": null, "note": null, "opening_hours": null, "opening_hours:drive_through": null, "opening_hours:url": null, "operator": null, "outdoor_seating": null, "phone": null, "ref": null, "roof:colour": null, "roof:shape": null, "smoking": null, "source": null, "takeaway": "yes", "@geometry": "center", "big_mac": "5.25" }, "geometry": { "type": "Point", "coordinates": [ -123.3695571, 43.2378988 ] } },
{ "type": "Feature", "properties": { "id": "way/589335225", "@id": "way/589335225", "addr:city": null, "addr:country": null, "addr:housenumber": null, "addr:postcode": null, "addr:state": null, "addr:street": null, "addr:unit": null, "amenity": "fast_food", "brand": "McDonald's", "brand:website": null, "brand:wikidata": "Q38076", "brand:wikipedia": "en:McDonald's", "building": "yes", "building:colour": null, "building:levels": null, "building:part": null, "building:use": null, "check_date": null, "cuisine": "burger", "delivery": null, "dog": null, "drive_through": null, "ele": null, "height": null, "indoor_seating": null, "internet_access": null, "internet_access:fee": null, "internet_access:ssid": null, "kids_area": null, "name": "McDonald's", "name:en": null, "note": null, "opening_hours": null, "opening_hours:drive_through": null, "opening_hours:url": null, "operator": null, "outdoor_seating": null, "phone": null, "ref": null, "roof:colour": null, "roof:shape": null, "smoking": null, "source": null, "takeaway": "yes", "@geometry": "center", "big_mac": "4.99" }, "geometry": { "type": "Point", "coordinates": [ -122.8768543, 45.1505527 ] } },
{ "type": "Feature", "properties": { "id": "way/591448145", "@id": "way/591448145", "addr:city": null, "addr:country": null, "addr:housenumber": null, "addr:postcode": null, "addr:state": null, "addr:street": null, "addr:unit": null, "amenity": "fast_food", "brand": "McDonald's", "brand:website": null, "brand:wikidata": "Q38076", "brand:wikipedia": "en:McDonald's", "building": "yes", "building:colour": null, "building:levels": null, "building:part": null, "building:use": null, "check_date": null, "cuisine": "burger", "delivery": null, "dog": null, "drive_through": null, "ele": null, "height": null, "indoor_seating": null, "internet_access": null, "internet_access:fee": null, "internet_access:ssid": null, "kids_area": null, "name": "McDonald's", "name:en": null, "note": null, "opening_hours": null, "opening_hours:drive_through": null, "opening_hours:url": null, "operator": null, "outdoor_seating": null, "phone": null, "ref": null, "roof:colour": null, "roof:shape": null, "smoking": null, "source": null, "takeaway": "yes", "@geometry": "center", "big_mac": "4.99" }, "geometry": { "type": "Point", "coordinates": [ -122.7862772, 45.0141632 ] } },
{ "type": "Feature", "properties": { "id": "way/592802635", "@id": "way/592802635", "addr:city": "The Dalles", "addr:country": null, "addr:housenumber": "1315", "addr:postcode": "97058", "addr:state": "OR", "addr:street": "West 6th Street", "addr:unit": null, "amenity": "fast_food", "brand": "McDonald's", "brand:website": null, "brand:wikidata": "Q38076", "brand:wikipedia": "en:McDonald's", "building": "yes", "building:colour": null, "building:levels": null, "building:part": null, "building:use": null, "check_date": null, "cuisine": "burger", "delivery": null, "dog": null, "drive_through": "yes", "ele": null, "height": null, "indoor_seating": null, "internet_access": null, "internet_access:fee": null, "internet_access:ssid": null, "kids_area": null, "name": "McDonald's", "name:en": null, "note": null, "opening_hours": null, "opening_hours:drive_through": null, "opening_hours:url": null, "operator": null, "outdoor_seating": null, "phone": "+1-541-298-5747", "ref": null, "roof:colour": null, "roof:shape": null, "smoking": null, "source": null, "takeaway": "yes", "@geometry": "center", "big_mac": "5.25" }, "geometry": { "type": "Point", "coordinates": [ -121.2011569, 45.607365 ] } },
{ "type": "Feature", "properties": { "id": "way/600580361", "@id": "way/600580361", "addr:city": null, "addr:country": null, "addr:housenumber": null, "addr:postcode": null, "addr:state": null, "addr:street": null, "addr:unit": null, "amenity": "fast_food", "brand": "McDonald's", "brand:website": null, "brand:wikidata": "Q38076", "brand:wikipedia": "en:McDonald's", "building": "yes", "building:colour": null, "building:levels": null, "building:part": null, "building:use": null, "check_date": null, "cuisine": "burger", "delivery": null, "dog": null, "drive_through": "yes", "ele": null, "height": null, "indoor_seating": null, "internet_access": null, "internet_access:fee": null, "internet_access:ssid": null, "kids_area": null, "name": "McDonald's", "name:en": null, "note": null, "opening_hours": null, "opening_hours:drive_through": null, "opening_hours:url": null, "operator": null, "outdoor_seating": null, "phone": null, "ref": null, "roof:colour": null, "roof:shape": null, "smoking": null, "source": null, "takeaway": "yes", "@geometry": "center", "big_mac": "4.20" }, "geometry": { "type": "Point", "coordinates": [ -122.85167, 42.4245191 ] } },
{ "type": "Feature", "properties": { "id": "way/601579546", "@id": "way/601579546", "addr:city": null, "addr:country": null, "addr:housenumber": null, "addr:postcode": null, "addr:state": null, "addr:street": null, "addr:unit": null, "amenity": "fast_food", "brand": "McDonald's", "brand:website": null, "brand:wikidata": "Q38076", "brand:wikipedia": "en:McDonald's", "building": "yes", "building:colour": null, "building:levels": null, "building:part": null, "building:use": null, "check_date": null, "cuisine": "burger", "delivery": null, "dog": null, "drive_through": "yes", "ele": null, "height": null, "indoor_seating": null, "internet_access": null, "internet_access:fee": null, "internet_access:ssid": null, "kids_area": null, "name": "McDonald's", "name:en": null, "note": null, "opening_hours": null, "opening_hours:drive_through": null, "opening_hours:url": null, "operator": null, "outdoor_seating": null, "phone": null, "ref": null, "roof:colour": null, "roof:shape": null, "smoking": null, "source": null, "takeaway": "yes", "@geometry": "center", "big_mac": "4.20" }, "geometry": { "type": "Point", "coordinates": [ -122.856659, 42.3663065 ] } },
{ "type": "Feature", "properties": { "id": "way/602833971", "@id": "way/602833971", "addr:city": null, "addr:country": null, "addr:housenumber": null, "addr:postcode": null, "addr:state": null, "addr:street": null, "addr:unit": null, "amenity": "fast_food", "brand": "McDonald's", "brand:website": null, "brand:wikidata": "Q38076", "brand:wikipedia": "en:McDonald's", "building": "yes", "building:colour": null, "building:levels": null, "building:part": null, "building:use": null, "check_date": null, "cuisine": "burger", "delivery": null, "dog": null, "drive_through": "yes", "ele": null, "height": null, "indoor_seating": null, "internet_access": null, "internet_access:fee": null, "internet_access:ssid": null, "kids_area": null, "name": "McDonald's", "name:en": null, "note": null, "opening_hours": null, "opening_hours:drive_through": null, "opening_hours:url": null, "operator": null, "outdoor_seating": null, "phone": null, "ref": null, "roof:colour": null, "roof:shape": null, "smoking": null, "source": null, "takeaway": "yes", "@geometry": "center", "big_mac": "6.50" }, "geometry": { "type": "Point", "coordinates": [ -120.8516517, 44.3025946 ] } },
{ "type": "Feature", "properties": { "id": "way/603722777", "@id": "way/603722777", "addr:city": null, "addr:country": null, "addr:housenumber": "1140", "addr:postcode": null, "addr:state": null, "addr:street": "Biddle Road", "addr:unit": null, "amenity": "fast_food", "brand": "McDonald's", "brand:website": null, "brand:wikidata": "Q38076", "brand:wikipedia": "en:McDonald's", "building": "yes", "building:colour": null, "building:levels": null, "building:part": null, "building:use": null, "check_date": null, "cuisine": "burger", "delivery": null, "dog": null, "drive_through": null, "ele": null, "height": null, "indoor_seating": null, "internet_access": null, "internet_access:fee": null, "internet_access:ssid": null, "kids_area": null, "name": "McDonald's", "name:en": null, "note": null, "opening_hours": "Mo-We,Su 05:00-24:00; Th-Sa 05:00-01:00", "opening_hours:drive_through": null, "opening_hours:url": null, "operator": null, "outdoor_seating": null, "phone": "+1 541-779-3334", "ref": null, "roof:colour": null, "roof:shape": null, "smoking": null, "source": null, "takeaway": "yes", "@geometry": "center", "big_mac": "4.20" }, "geometry": { "type": "Point", "coordinates": [ -122.8712922, 42.3408204 ] } },
{ "type": "Feature", "properties": { "id": "way/607605315", "@id": "way/607605315", "addr:city": "Clackamas", "addr:country": null, "addr:housenumber": "11899", "addr:postcode": "97015", "addr:state": "OR", "addr:street": "Southeast Sunnyside Road", "addr:unit": null, "amenity": "fast_food", "brand": "McDonald's", "brand:website": "https://www.mcdonalds.com/", "brand:wikidata": "Q38076", "brand:wikipedia": "en:McDonald's", "building": "yes", "building:colour": null, "building:levels": null, "building:part": null, "building:use": null, "check_date": null, "cuisine": "burger", "delivery": "yes", "dog": null, "drive_through": "24/7", "ele": null, "height": null, "indoor_seating": null, "internet_access": "wlan", "internet_access:fee": "no", "internet_access:ssid": null, "kids_area": null, "name": "McDonald's", "name:en": null, "note": null, "opening_hours": "Mo-Su 04:00-23:00; Fr,Sa 04:00-24:00", "opening_hours:drive_through": null, "opening_hours:url": null, "operator": null, "outdoor_seating": null, "phone": "+1-503-658-5107", "ref": null, "roof:colour": null, "roof:shape": null, "smoking": null, "source": null, "takeaway": "yes", "@geometry": "center", "big_mac": "4.99" }, "geometry": { "type": "Point", "coordinates": [ -122.5405809, 45.4305489 ] } },
{ "type": "Feature", "properties": { "id": "way/619840113", "@id": "way/619840113", "addr:city": null, "addr:country": null, "addr:housenumber": null, "addr:postcode": null, "addr:state": null, "addr:street": null, "addr:unit": null, "amenity": "fast_food", "brand": "McDonald's", "brand:website": null, "brand:wikidata": "Q38076", "brand:wikipedia": "en:McDonald's", "building": "yes", "building:colour": null, "building:levels": null, "building:part": null, "building:use": null, "check_date": null, "cuisine": "burger", "delivery": null, "dog": null, "drive_through": null, "ele": null, "height": null, "indoor_seating": null, "internet_access": null, "internet_access:fee": null, "internet_access:ssid": null, "kids_area": null, "name": "McDonald's", "name:en": null, "note": null, "opening_hours": null, "opening_hours:drive_through": null, "opening_hours:url": null, "operator": null, "outdoor_seating": null, "phone": null, "ref": null, "roof:colour": null, "roof:shape": null, "smoking": null, "source": null, "takeaway": "yes", "@geometry": "center", "big_mac": "5.25" }, "geometry": { "type": "Point", "coordinates": [ -121.1386884, 45.6042883 ] } },
{ "type": "Feature", "properties": { "id": "node/631428751", "@id": "node/631428751", "addr:city": null, "addr:country": null, "addr:housenumber": null, "addr:postcode": null, "addr:state": null, "addr:street": null, "addr:unit": null, "amenity": "fast_food", "brand": "McDonald's", "brand:website": null, "brand:wikidata": "Q38076", "brand:wikipedia": "en:McDonald's", "building": null, "building:colour": null, "building:levels": null, "building:part": null, "building:use": null, "check_date": null, "cuisine": "burger", "delivery": null, "dog": null, "drive_through": null, "ele": null, "height": null, "indoor_seating": null, "internet_access": null, "internet_access:fee": null, "internet_access:ssid": null, "kids_area": null, "name": "McDonald's", "name:en": null, "note": null, "opening_hours": null, "opening_hours:drive_through": null, "opening_hours:url": null, "operator": null, "outdoor_seating": null, "phone": null, "ref": null, "roof:colour": null, "roof:shape": null, "smoking": null, "source": null, "takeaway": "yes", "@geometry": null, "big_mac": "5.49" }, "geometry": { "type": "Point", "coordinates": [ -119.205721, 45.7659102 ] } },
{ "type": "Feature", "properties": { "id": "way/648838617", "@id": "way/648838617", "addr:city": "Redmond", "addr:country": null, "addr:housenumber": "2456", "addr:postcode": "97756", "addr:state": "OR", "addr:street": "The Dalles-California Highway", "addr:unit": null, "amenity": "fast_food", "brand": "McDonald's", "brand:website": null, "brand:wikidata": "Q38076", "brand:wikipedia": "en:McDonald's", "building": "yes", "building:colour": null, "building:levels": null, "building:part": null, "building:use": null, "check_date": null, "cuisine": "burger", "delivery": "no", "dog": null, "drive_through": "yes", "ele": null, "height": null, "indoor_seating": null, "internet_access": null, "internet_access:fee": null, "internet_access:ssid": null, "kids_area": null, "name": "McDonald's", "name:en": null, "note": null, "opening_hours": null, "opening_hours:drive_through": null, "opening_hours:url": null, "operator": null, "outdoor_seating": null, "phone": null, "ref": null, "roof:colour": null, "roof:shape": null, "smoking": null, "source": null, "takeaway": "yes", "@geometry": "center", "big_mac": "6.50" }, "geometry": { "type": "Point", "coordinates": [ -121.1827741, 44.2532213 ] } },
{ "type": "Feature", "properties": { "id": "way/668211397", "@id": "way/668211397", "addr:city": "Eugene", "addr:country": null, "addr:housenumber": "3555", "addr:postcode": "97402", "addr:state": "OR", "addr:street": "West 11th Avenue", "addr:unit": null, "amenity": "fast_food", "brand": "McDonald's", "brand:website": null, "brand:wikidata": "Q38076", "brand:wikipedia": "en:McDonald's", "building": "service", "building:colour": null, "building:levels": null, "building:part": null, "building:use": null, "check_date": null, "cuisine": "burger", "delivery": null, "dog": null, "drive_through": "yes", "ele": null, "height": null, "indoor_seating": null, "internet_access": null, "internet_access:fee": null, "internet_access:ssid": null, "kids_area": null, "name": "McDonald's", "name:en": null, "note": null, "opening_hours": null, "opening_hours:drive_through": null, "opening_hours:url": null, "operator": null, "outdoor_seating": null, "phone": null, "ref": null, "roof:colour": null, "roof:shape": null, "smoking": null, "source": null, "takeaway": "yes", "@geometry": "center", "big_mac": "5.50" }, "geometry": { "type": "Point", "coordinates": [ -123.1446181, 44.0483407 ] } },
{ "type": "Feature", "properties": { "id": "way/679566887", "@id": "way/679566887", "addr:city": "Junction City", "addr:country": null, "addr:housenumber": "355", "addr:postcode": "97448", "addr:state": "OR", "addr:street": "West 10th Avenue", "addr:unit": null, "amenity": "fast_food", "brand": "McDonald's", "brand:website": null, "brand:wikidata": "Q38076", "brand:wikipedia": "en:McDonald's", "building": "yes", "building:colour": null, "building:levels": null, "building:part": null, "building:use": null, "check_date": null, "cuisine": "burger", "delivery": null, "dog": null, "drive_through": null, "ele": null, "height": null, "indoor_seating": null, "internet_access": null, "internet_access:fee": null, "internet_access:ssid": null, "kids_area": null, "name": "McDonald's", "name:en": null, "note": null, "opening_hours": null, "opening_hours:drive_through": null, "opening_hours:url": null, "operator": null, "outdoor_seating": null, "phone": null, "ref": null, "roof:colour": null, "roof:shape": null, "smoking": null, "source": null, "takeaway": "yes", "@geometry": "center", "big_mac": "5.50" }, "geometry": { "type": "Point", "coordinates": [ -123.2040153, 44.2223374 ] } },
{ "type": "Feature", "properties": { "id": "way/736642947", "@id": "way/736642947", "addr:city": null, "addr:country": null, "addr:housenumber": null, "addr:postcode": null, "addr:state": null, "addr:street": null, "addr:unit": null, "amenity": "fast_food", "brand": "McDonald's", "brand:website": null, "brand:wikidata": "Q38076", "brand:wikipedia": "en:McDonald's", "building": "yes", "building:colour": null, "building:levels": null, "building:part": null, "building:use": null, "check_date": null, "cuisine": "burger", "delivery": null, "dog": null, "drive_through": null, "ele": null, "height": null, "indoor_seating": null, "internet_access": null, "internet_access:fee": null, "internet_access:ssid": null, "kids_area": null, "name": "McDonald's", "name:en": null, "note": null, "opening_hours": null, "opening_hours:drive_through": null, "opening_hours:url": null, "operator": null, "outdoor_seating": null, "phone": null, "ref": null, "roof:colour": null, "roof:shape": null, "smoking": null, "source": null, "takeaway": "yes", "@geometry": "center", "big_mac": "4.50" }, "geometry": { "type": "Point", "coordinates": [ -122.9839881, 44.9437189 ] } },
{ "type": "Feature", "properties": { "id": "way/738640892", "@id": "way/738640892", "addr:city": null, "addr:country": null, "addr:housenumber": null, "addr:postcode": null, "addr:state": null, "addr:street": null, "addr:unit": null, "amenity": "fast_food", "brand": "McDonald's", "brand:website": null, "brand:wikidata": "Q38076", "brand:wikipedia": "en:McDonald's", "building": "yes", "building:colour": null, "building:levels": null, "building:part": null, "building:use": null, "check_date": null, "cuisine": "burger", "delivery": "no", "dog": null, "drive_through": "yes", "ele": null, "height": null, "indoor_seating": null, "internet_access": "wlan", "internet_access:fee": null, "internet_access:ssid": null, "kids_area": null, "name": "McDonald's", "name:en": null, "note": null, "opening_hours": "Mo-Su 05:00-23:00", "opening_hours:drive_through": null, "opening_hours:url": null, "operator": null, "outdoor_seating": "no", "phone": null, "ref": null, "roof:colour": null, "roof:shape": null, "smoking": null, "source": null, "takeaway": "yes", "@geometry": "center", "big_mac": "4.50" }, "geometry": { "type": "Point", "coordinates": [ -122.9921895, 44.9493083 ] } },
{ "type": "Feature", "properties": { "id": "way/743453586", "@id": "way/743453586", "addr:city": null, "addr:country": null, "addr:housenumber": null, "addr:postcode": null, "addr:state": null, "addr:street": null, "addr:unit": null, "amenity": "fast_food", "brand": "McDonald's", "brand:website": null, "brand:wikidata": "Q38076", "brand:wikipedia": "en:McDonald's", "building": "yes", "building:colour": null, "building:levels": null, "building:part": null, "building:use": null, "check_date": null, "cuisine": "burger", "delivery": null, "dog": null, "drive_through": null, "ele": null, "height": null, "indoor_seating": null, "internet_access": null, "internet_access:fee": null, "internet_access:ssid": null, "kids_area": "yes", "name": "McDonald's", "name:en": null, "note": null, "opening_hours": null, "opening_hours:drive_through": null, "opening_hours:url": null, "operator": null, "outdoor_seating": null, "phone": null, "ref": null, "roof:colour": null, "roof:shape": null, "smoking": null, "source": null, "takeaway": "yes", "@geometry": "center", "big_mac": "4.50" }, "geometry": { "type": "Point", "coordinates": [ -122.9808317, 44.9154028 ] } },
{ "type": "Feature", "properties": { "id": "way/746288274", "@id": "way/746288274", "addr:city": null, "addr:country": null, "addr:housenumber": null, "addr:postcode": null, "addr:state": null, "addr:street": null, "addr:unit": null, "amenity": "fast_food", "brand": "McDonald's", "brand:website": null, "brand:wikidata": "Q38076", "brand:wikipedia": "en:McDonald's", "building": "yes", "building:colour": null, "building:levels": null, "building:part": null, "building:use": null, "check_date": null, "cuisine": "burger", "delivery": null, "dog": null, "drive_through": null, "ele": null, "height": null, "indoor_seating": null, "internet_access": null, "internet_access:fee": null, "internet_access:ssid": null, "kids_area": null, "name": "McDonald's", "name:en": null, "note": null, "opening_hours": null, "opening_hours:drive_through": null, "opening_hours:url": null, "operator": null, "outdoor_seating": null, "phone": null, "ref": null, "roof:colour": null, "roof:shape": null, "smoking": null, "source": null, "takeaway": "yes", "@geometry": "center", "big_mac": "5.25" }, "geometry": { "type": "Point", "coordinates": [ -123.3800199, 43.1455098 ] } },
{ "type": "Feature", "properties": { "id": "way/749026464", "@id": "way/749026464", "addr:city": null, "addr:country": null, "addr:housenumber": null, "addr:postcode": null, "addr:state": null, "addr:street": null, "addr:unit": null, "amenity": "fast_food", "brand": "McDonald's", "brand:website": null, "brand:wikidata": "Q38076", "brand:wikipedia": "en:McDonald's", "building": "yes", "building:colour": null, "building:levels": null, "building:part": null, "building:use": null, "check_date": null, "cuisine": "burger", "delivery": null, "dog": null, "drive_through": null, "ele": null, "height": null, "indoor_seating": null, "internet_access": null, "internet_access:fee": null, "internet_access:ssid": null, "kids_area": null, "name": "McDonald's", "name:en": null, "note": null, "opening_hours": null, "opening_hours:drive_through": null, "opening_hours:url": null, "operator": null, "outdoor_seating": null, "phone": null, "ref": null, "roof:colour": null, "roof:shape": null, "smoking": null, "source": null, "takeaway": "yes", "@geometry": "center", "big_mac": "4.50" }, "geometry": { "type": "Point", "coordinates": [ -123.0281303, 44.9690283 ] } },
{ "type": "Feature", "properties": { "id": "way/780579419", "@id": "way/780579419", "addr:city": "Medford", "addr:country": null, "addr:housenumber": "221", "addr:postcode": "97501", "addr:state": "OR", "addr:street": "Fern Valley Road", "addr:unit": null, "amenity": "fast_food", "brand": "McDonald's", "brand:website": null, "brand:wikidata": "Q38076", "brand:wikipedia": "en:McDonald's", "building": "yes", "building:colour": null, "building:levels": null, "building:part": null, "building:use": null, "check_date": null, "cuisine": "burger", "delivery": null, "dog": null, "drive_through": "yes", "ele": null, "height": null, "indoor_seating": null, "internet_access": null, "internet_access:fee": null, "internet_access:ssid": null, "kids_area": null, "name": "McDonald's", "name:en": null, "note": null, "opening_hours": "06:00-23:00", "opening_hours:drive_through": null, "opening_hours:url": null, "operator": null, "outdoor_seating": null, "phone": "+1-541-535-7683", "ref": null, "roof:colour": null, "roof:shape": null, "smoking": null, "source": null, "takeaway": "yes", "@geometry": "center", "big_mac": "4.80" }, "geometry": { "type": "Point", "coordinates": [ -122.8174509, 42.2813021 ] } },
{ "type": "Feature", "properties": { "id": "way/794483771", "@id": "way/794483771", "addr:city": "Eugene", "addr:country": null, "addr:housenumber": "2125", "addr:postcode": "97402", "addr:state": "OR", "addr:street": "Cubit Street", "addr:unit": null, "amenity": "fast_food", "brand": "McDonald's", "brand:website": null, "brand:wikidata": "Q38076", "brand:wikipedia": "en:McDonald's", "building": "yes", "building:colour": null, "building:levels": null, "building:part": null, "building:use": null, "check_date": null, "cuisine": "burger", "delivery": null, "dog": null, "drive_through": "yes", "ele": null, "height": null, "indoor_seating": null, "internet_access": null, "internet_access:fee": null, "internet_access:ssid": null, "kids_area": null, "name": "McDonald's", "name:en": null, "note": null, "opening_hours": null, "opening_hours:drive_through": null, "opening_hours:url": null, "operator": null, "outdoor_seating": null, "phone": null, "ref": null, "roof:colour": null, "roof:shape": null, "smoking": null, "source": null, "takeaway": "yes", "@geometry": "center", "big_mac": "5.50" }, "geometry": { "type": "Point", "coordinates": [ -123.1674216, 44.0850636 ] } },
{ "type": "Feature", "properties": { "id": "way/797249862", "@id": "way/797249862", "addr:city": "Hillsboro", "addr:country": null, "addr:housenumber": "2090", "addr:postcode": "97123", "addr:state": "OR", "addr:street": "Southeast Cypress Street", "addr:unit": null, "amenity": "fast_food", "brand": "McDonald's", "brand:website": null, "brand:wikidata": "Q38076", "brand:wikipedia": "en:McDonald's", "building": "yes", "building:colour": null, "building:levels": null, "building:part": null, "building:use": null, "check_date": null, "cuisine": "burger", "delivery": null, "dog": null, "drive_through": null, "ele": null, "height": null, "indoor_seating": null, "internet_access": null, "internet_access:fee": null, "internet_access:ssid": null, "kids_area": null, "name": "McDonald's", "name:en": null, "note": null, "opening_hours": null, "opening_hours:drive_through": null, "opening_hours:url": null, "operator": null, "outdoor_seating": null, "phone": null, "ref": null, "roof:colour": null, "roof:shape": null, "smoking": null, "source": null, "takeaway": "yes", "@geometry": "center", "big_mac": "5.45" }, "geometry": { "type": "Point", "coordinates": [ -122.9604116, 45.5070817 ] } },
{ "type": "Feature", "properties": { "id": "way/824327681", "@id": "way/824327681", "addr:city": null, "addr:country": null, "addr:housenumber": null, "addr:postcode": null, "addr:state": null, "addr:street": null, "addr:unit": null, "amenity": "fast_food", "brand": "McDonald's", "brand:website": "https://www.mcdonalds.com/", "brand:wikidata": "Q38076", "brand:wikipedia": "en:McDonald's", "building": "yes", "building:colour": null, "building:levels": null, "building:part": null, "building:use": null, "check_date": null, "cuisine": "burger", "delivery": null, "dog": null, "drive_through": "yes", "ele": null, "height": null, "indoor_seating": null, "internet_access": null, "internet_access:fee": null, "internet_access:ssid": null, "kids_area": null, "name": "McDonald's", "name:en": null, "note": null, "opening_hours": null, "opening_hours:drive_through": null, "opening_hours:url": null, "operator": null, "outdoor_seating": null, "phone": null, "ref": null, "roof:colour": null, "roof:shape": null, "smoking": null, "source": "microsoft/BuildingFootprints", "takeaway": "yes", "@geometry": "center", "big_mac": "5.00" }, "geometry": { "type": "Point", "coordinates": [ -123.167128, 45.20185 ] } },
{ "type": "Feature", "properties": { "id": "way/868891438", "@id": "way/868891438", "addr:city": "Eugene", "addr:country": null, "addr:housenumber": "2855", "addr:postcode": "97405", "addr:state": "OR", "addr:street": "Willamette Street", "addr:unit": null, "amenity": "fast_food", "brand": "McDonald's", "brand:website": null, "brand:wikidata": "Q38076", "brand:wikipedia": "en:McDonald's", "building": "yes", "building:colour": null, "building:levels": null, "building:part": null, "building:use": null, "check_date": null, "cuisine": "burger", "delivery": null, "dog": null, "drive_through": "yes", "ele": null, "height": null, "indoor_seating": null, "internet_access": null, "internet_access:fee": null, "internet_access:ssid": null, "kids_area": null, "name": "McDonald's", "name:en": null, "note": null, "opening_hours": null, "opening_hours:drive_through": null, "opening_hours:url": null, "operator": null, "outdoor_seating": null, "phone": null, "ref": null, "roof:colour": null, "roof:shape": null, "smoking": null, "source": null, "takeaway": "yes", "@geometry": "center", "big_mac": "5.50" }, "geometry": { "type": "Point", "coordinates": [ -123.0902859, 44.0268203 ] } },
{ "type": "Feature", "properties": { "id": "way/1047342357", "@id": "way/1047342357", "addr:city": "Dallas", "addr:country": null, "addr:housenumber": "227", "addr:postcode": "97338", "addr:state": "OR", "addr:street": "East Ellendale Avenue", "addr:unit": null, "amenity": "fast_food", "brand": "McDonald's", "brand:website": null, "brand:wikidata": "Q38076", "brand:wikipedia": "en:McDonald's", "building": "yes", "building:colour": null, "building:levels": null, "building:part": null, "building:use": null, "check_date": null, "cuisine": "burger", "delivery": "no", "dog": null, "drive_through": null, "ele": null, "height": null, "indoor_seating": null, "internet_access": null, "internet_access:fee": null, "internet_access:ssid": null, "kids_area": null, "name": "McDonald's", "name:en": null, "note": null, "opening_hours": null, "opening_hours:drive_through": null, "opening_hours:url": "http://www.mcoregon.com/11785/5647/Restaurant-Hours/", "operator": null, "outdoor_seating": null, "phone": "(503) 623-3288", "ref": null, "roof:colour": null, "roof:shape": null, "smoking": null, "source": "microsoft/BuildingFootprints", "takeaway": "yes", "@geometry": "center", "big_mac": "5.00" }, "geometry": { "type": "Point", "coordinates": [ -123.309652, 44.9292715 ] } },
{ "type": "Feature", "properties": { "id": "way/1071444853", "@id": "way/1071444853", "addr:city": null, "addr:country": null, "addr:housenumber": null, "addr:postcode": null, "addr:state": null, "addr:street": null, "addr:unit": null, "amenity": "fast_food", "brand": "McDonald's", "brand:website": null, "brand:wikidata": "Q38076", "brand:wikipedia": "en:McDonald's", "building": "yes", "building:colour": null, "building:levels": null, "building:part": null, "building:use": null, "check_date": null, "cuisine": "burger", "delivery": null, "dog": null, "drive_through": null, "ele": null, "height": null, "indoor_seating": null, "internet_access": null, "internet_access:fee": null, "internet_access:ssid": null, "kids_area": null, "name": "McDonald's", "name:en": null, "note": null, "opening_hours": null, "opening_hours:drive_through": null, "opening_hours:url": null, "operator": null, "outdoor_seating": null, "phone": null, "ref": null, "roof:colour": null, "roof:shape": null, "smoking": null, "source": null, "takeaway": "yes", "@geometry": "center", "big_mac": "5.25" }, "geometry": { "type": "Point", "coordinates": [ -123.340579, 42.9729303 ] } },
{ "type": "Feature", "properties": { "id": "way/1071754874", "@id": "way/1071754874", "addr:city": "Reedsport", "addr:country": null, "addr:housenumber": null, "addr:postcode": "97467", "addr:state": "OR", "addr:street": null, "addr:unit": null, "amenity": "fast_food", "brand": "McDonald's", "brand:website": null, "brand:wikidata": "Q38076", "brand:wikipedia": "en:McDonald's", "building": "yes", "building:colour": null, "building:levels": null, "building:part": null, "building:use": null, "check_date": null, "cuisine": "burger", "delivery": null, "dog": null, "drive_through": "yes", "ele": null, "height": null, "indoor_seating": null, "internet_access": "wlan", "internet_access:fee": null, "internet_access:ssid": null, "kids_area": null, "name": "McDonald's", "name:en": null, "note": null, "opening_hours": "Mo-Sa 05:30-23:00; Su 06:00-23:00", "opening_hours:drive_through": null, "opening_hours:url": null, "operator": null, "outdoor_seating": null, "phone": null, "ref": null, "roof:colour": null, "roof:shape": null, "smoking": null, "source": null, "takeaway": "yes", "@geometry": "center", "big_mac": "5.50" }, "geometry": { "type": "Point", "coordinates": [ -124.1105528, 43.6998478 ] } },
{ "type": "Feature", "properties": { "id": "way/1080122108", "@id": "way/1080122108", "addr:city": "Grants Pass", "addr:country": null, "addr:housenumber": null, "addr:postcode": "97526", "addr:state": "OR", "addr:street": "Northeast 6th Street", "addr:unit": null, "amenity": "fast_food", "brand": "McDonald's", "brand:website": null, "brand:wikidata": "Q38076", "brand:wikipedia": "en:McDonald's", "building": "yes", "building:colour": null, "building:levels": null, "building:part": null, "building:use": null, "check_date": null, "cuisine": "burger", "delivery": null, "dog": null, "drive_through": "yes", "ele": null, "height": null, "indoor_seating": null, "internet_access": null, "internet_access:fee": null, "internet_access:ssid": null, "kids_area": null, "name": "McDonald's", "name:en": null, "note": null, "opening_hours": null, "opening_hours:drive_through": null, "opening_hours:url": null, "operator": null, "outdoor_seating": null, "phone": null, "ref": null, "roof:colour": null, "roof:shape": null, "smoking": null, "source": null, "takeaway": "yes", "@geometry": "center", "big_mac": "4.80" }, "geometry": { "type": "Point", "coordinates": [ -123.3221693, 42.461315 ] } },
{ "type": "Feature", "properties": { "id": "way/1105658440", "@id": "way/1105658440", "addr:city": "Philomath", "addr:country": null, "addr:housenumber": null, "addr:postcode": null, "addr:state": "OR", "addr:street": null, "addr:unit": null, "amenity": "fast_food", "brand": "McDonald's", "brand:website": null, "brand:wikidata": "Q38076", "brand:wikipedia": null, "building": "retail", "building:colour": null, "building:levels": null, "building:part": null, "building:use": null, "check_date": null, "cuisine": "burger", "delivery": null, "dog": "no", "drive_through": "yes", "ele": null, "height": null, "indoor_seating": null, "internet_access": "wlan", "internet_access:fee": null, "internet_access:ssid": null, "kids_area": null, "name": "McDonald's", "name:en": null, "note": null, "opening_hours": "Mo-Th 05:00-23:00 \"Drive-Through\"; Fr-Sa 05:00-00:00 \"Drive-Through\"; Su 05:00-23:00 \"Drive-Through\"", "opening_hours:drive_through": null, "opening_hours:url": null, "operator": null, "outdoor_seating": "yes", "phone": null, "ref": null, "roof:colour": null, "roof:shape": null, "smoking": "no", "source": "microsoft/BuildingFootprints", "takeaway": "yes", "@geometry": "center", "big_mac": "4.55" }, "geometry": { "type": "Point", "coordinates": [ -123.3658501, 44.5393014 ] } },
{ "type": "Feature", "properties": { "id": "way/1106234928", "@id": "way/1106234928", "addr:city": "Klamath Falls", "addr:country": null, "addr:housenumber": "2481", "addr:postcode": "97601", "addr:state": "OR", "addr:street": "Campus Drive", "addr:unit": null, "amenity": "fast_food", "brand": "McDonald's", "brand:website": null, "brand:wikidata": "Q38076", "brand:wikipedia": null, "building": "yes", "building:colour": null, "building:levels": null, "building:part": null, "building:use": null, "check_date": null, "cuisine": "burger", "delivery": null, "dog": null, "drive_through": "yes", "ele": null, "height": null, "indoor_seating": null, "internet_access": null, "internet_access:fee": null, "internet_access:ssid": null, "kids_area": null, "name": "McDonald's", "name:en": null, "note": null, "opening_hours": "Mo-Su 05:00-00:00", "opening_hours:drive_through": null, "opening_hours:url": null, "operator": null, "outdoor_seating": null, "phone": "+1 (541) 884-6654", "ref": null, "roof:colour": null, "roof:shape": null, "smoking": null, "source": "microsoft/BuildingFootprints", "takeaway": "yes", "@geometry": "center", "big_mac": "4.99" }, "geometry": { "type": "Point", "coordinates": [ -121.7899105, 42.2495622 ] } },
{ "type": "Feature", "properties": { "id": "node/1161728632", "@id": "node/1161728632", "addr:city": null, "addr:country": null, "addr:housenumber": null, "addr:postcode": null, "addr:state": null, "addr:street": null, "addr:unit": null, "amenity": "fast_food", "brand": "McDonald's", "brand:website": null, "brand:wikidata": "Q38076", "brand:wikipedia": "en:McDonald's", "building": null, "building:colour": null, "building:levels": null, "building:part": null, "building:use": null, "check_date": null, "cuisine": "burger", "delivery": null, "dog": null, "drive_through": null, "ele": null, "height": null, "indoor_seating": null, "internet_access": null, "internet_access:fee": null, "internet_access:ssid": null, "kids_area": null, "name": "McDonald's", "name:en": null, "note": null, "opening_hours": null, "opening_hours:drive_through": null, "opening_hours:url": null, "operator": null, "outdoor_seating": null, "phone": null, "ref": null, "roof:colour": null, "roof:shape": null, "smoking": null, "source": null, "takeaway": "yes", "@geometry": null, "big_mac": "6.50" }, "geometry": { "type": "Point", "coordinates": [ -121.5619336, 44.2977979 ] } },
{ "type": "Feature", "properties": { "id": "way/1165002665", "@id": "way/1165002665", "addr:city": "La Pine", "addr:country": null, "addr:housenumber": null, "addr:postcode": "97739-9704", "addr:state": "OR", "addr:street": "Reed Road", "addr:unit": null, "amenity": "fast_food", "brand": "McDonald's", "brand:website": null, "brand:wikidata": "Q38076", "brand:wikipedia": "en:McDonald's", "building": null, "building:colour": null, "building:levels": null, "building:part": "yes", "building:use": null, "check_date": null, "cuisine": "burger", "delivery": null, "dog": "no", "drive_through": "yes", "ele": null, "height": null, "indoor_seating": null, "internet_access": "wlan", "internet_access:fee": null, "internet_access:ssid": null, "kids_area": null, "name": "McDonald's", "name:en": null, "note": null, "opening_hours": "05:30-23:00", "opening_hours:drive_through": null, "opening_hours:url": null, "operator": null, "outdoor_seating": null, "phone": null, "ref": null, "roof:colour": null, "roof:shape": null, "smoking": "no", "source": null, "takeaway": "yes", "@geometry": "center", "big_mac": "6.50" }, "geometry": { "type": "Point", "coordinates": [ -121.4998505, 43.674053 ] } },
{ "type": "Feature", "properties": { "id": "node/1573773056", "@id": "node/1573773056", "addr:city": null, "addr:country": null, "addr:housenumber": "43", "addr:postcode": null, "addr:state": null, "addr:street": "South 9th Street", "addr:unit": null, "amenity": "fast_food", "brand": "McDonald's", "brand:website": null, "brand:wikidata": "Q38076", "brand:wikipedia": "en:McDonald's", "building": null, "building:colour": null, "building:levels": null, "building:part": null, "building:use": null, "check_date": null, "cuisine": "burger", "delivery": null, "dog": null, "drive_through": null, "ele": null, "height": null, "indoor_seating": null, "internet_access": null, "internet_access:fee": null, "internet_access:ssid": null, "kids_area": null, "name": "McDonald's", "name:en": null, "note": null, "opening_hours": "05:00-23:00", "opening_hours:drive_through": null, "opening_hours:url": null, "operator": null, "outdoor_seating": null, "phone": "+1 541-664-1663", "ref": null, "roof:colour": null, "roof:shape": null, "smoking": null, "source": "local knowledge", "takeaway": "yes", "@geometry": null, "big_mac": "4.80" }, "geometry": { "type": "Point", "coordinates": [ -122.9096543, 42.3777895 ] } },
{ "type": "Feature", "properties": { "id": "node/1722506862", "@id": "node/1722506862", "addr:city": null, "addr:country": null, "addr:housenumber": null, "addr:postcode": null, "addr:state": null, "addr:street": null, "addr:unit": null, "amenity": "fast_food", "brand": "McDonald's", "brand:website": null, "brand:wikidata": "Q38076", "brand:wikipedia": "en:McDonald's", "building": null, "building:colour": null, "building:levels": null, "building:part": null, "building:use": null, "check_date": null, "cuisine": "burger", "delivery": null, "dog": null, "drive_through": null, "ele": null, "height": null, "indoor_seating": null, "internet_access": null, "internet_access:fee": null, "internet_access:ssid": null, "kids_area": null, "name": "McDonald's", "name:en": null, "note": null, "opening_hours": null, "opening_hours:drive_through": null, "opening_hours:url": null, "operator": null, "outdoor_seating": null, "phone": null, "ref": null, "roof:colour": null, "roof:shape": null, "smoking": null, "source": null, "takeaway": "yes", "@geometry": null, "big_mac": "5.99" }, "geometry": { "type": "Point", "coordinates": [ -118.6829906, 45.6436508 ] } },
{ "type": "Feature", "properties": { "id": "node/1802083950", "@id": "node/1802083950", "addr:city": null, "addr:country": null, "addr:housenumber": null, "addr:postcode": null, "addr:state": null, "addr:street": null, "addr:unit": null, "amenity": "fast_food", "brand": "McDonald's", "brand:website": null, "brand:wikidata": "Q38076", "brand:wikipedia": "en:McDonald's", "building": null, "building:colour": null, "building:levels": null, "building:part": null, "building:use": null, "check_date": null, "cuisine": "burger", "delivery": null, "dog": null, "drive_through": null, "ele": null, "height": null, "indoor_seating": null, "internet_access": null, "internet_access:fee": null, "internet_access:ssid": null, "kids_area": null, "name": "McDonald's", "name:en": null, "note": null, "opening_hours": null, "opening_hours:drive_through": null, "opening_hours:url": null, "operator": null, "outdoor_seating": null, "phone": null, "ref": null, "roof:colour": null, "roof:shape": null, "smoking": null, "source": null, "takeaway": "yes", "@geometry": null, "big_mac": "5.69" }, "geometry": { "type": "Point", "coordinates": [ -118.3873627, 45.9312879 ] } },
{ "type": "Feature", "properties": { "id": "node/2390205285", "@id": "node/2390205285", "addr:city": null, "addr:country": null, "addr:housenumber": null, "addr:postcode": null, "addr:state": null, "addr:street": null, "addr:unit": null, "amenity": "fast_food", "brand": "McDonald's", "brand:website": null, "brand:wikidata": "Q38076", "brand:wikipedia": "en:McDonald's", "building": null, "building:colour": null, "building:levels": null, "building:part": null, "building:use": null, "check_date": null, "cuisine": "burger", "delivery": null, "dog": null, "drive_through": null, "ele": null, "height": null, "indoor_seating": null, "internet_access": null, "internet_access:fee": null, "internet_access:ssid": null, "kids_area": null, "name": "McDonald's", "name:en": null, "note": null, "opening_hours": null, "opening_hours:drive_through": null, "opening_hours:url": null, "operator": null, "outdoor_seating": null, "phone": null, "ref": null, "roof:colour": null, "roof:shape": null, "smoking": null, "source": null, "takeaway": "yes", "@geometry": null, "big_mac": "4.80" }, "geometry": { "type": "Point", "coordinates": [ -123.3081329, 42.4365545 ] } },
{ "type": "Feature", "properties": { "id": "node/2972090999", "@id": "node/2972090999", "addr:city": null, "addr:country": null, "addr:housenumber": null, "addr:postcode": null, "addr:state": null, "addr:street": null, "addr:unit": null, "amenity": "fast_food", "brand": "McDonald's", "brand:website": null, "brand:wikidata": "Q38076", "brand:wikipedia": "en:McDonald's", "building": null, "building:colour": null, "building:levels": null, "building:part": null, "building:use": null, "check_date": null, "cuisine": "burger", "delivery": null, "dog": null, "drive_through": null, "ele": null, "height": null, "indoor_seating": null, "internet_access": null, "internet_access:fee": null, "internet_access:ssid": null, "kids_area": null, "name": "McDonald's", "name:en": null, "note": null, "opening_hours": null, "opening_hours:drive_through": null, "opening_hours:url": null, "operator": null, "outdoor_seating": null, "phone": null, "ref": null, "roof:colour": null, "roof:shape": null, "smoking": null, "source": null, "takeaway": "yes", "@geometry": null, "big_mac": "4.50" }, "geometry": { "type": "Point", "coordinates": [ -122.8140588, 44.8094616 ] } },
{ "type": "Feature", "properties": { "id": "node/3660478287", "@id": "node/3660478287", "addr:city": null, "addr:country": null, "addr:housenumber": null, "addr:postcode": null, "addr:state": null, "addr:street": null, "addr:unit": null, "amenity": "fast_food", "brand": "McDonald's", "brand:website": null, "brand:wikidata": "Q38076", "brand:wikipedia": "en:McDonald's", "building": null, "building:colour": null, "building:levels": null, "building:part": null, "building:use": null, "check_date": null, "cuisine": "burger", "delivery": "no", "dog": null, "drive_through": "yes", "ele": null, "height": null, "indoor_seating": null, "internet_access": "wlan", "internet_access:fee": null, "internet_access:ssid": null, "kids_area": null, "name": "McDonald's", "name:en": "McDonald's", "note": null, "opening_hours": null, "opening_hours:drive_through": null, "opening_hours:url": null, "operator": null, "outdoor_seating": null, "phone": null, "ref": null, "roof:colour": null, "roof:shape": null, "smoking": null, "source": null, "takeaway": "yes", "@geometry": null, "big_mac": "4.99" }, "geometry": { "type": "Point", "coordinates": [ -122.6055393, 45.1514937 ] } },
{ "type": "Feature", "properties": { "id": "node/3905855643", "@id": "node/3905855643", "addr:city": null, "addr:country": null, "addr:housenumber": null, "addr:postcode": null, "addr:state": null, "addr:street": null, "addr:unit": null, "amenity": "fast_food", "brand": "McDonald's", "brand:website": null, "brand:wikidata": "Q38076", "brand:wikipedia": "en:McDonald's", "building": null, "building:colour": null, "building:levels": null, "building:part": null, "building:use": null, "check_date": null, "cuisine": "burger", "delivery": null, "dog": null, "drive_through": null, "ele": null, "height": null, "indoor_seating": null, "internet_access": null, "internet_access:fee": null, "internet_access:ssid": null, "kids_area": null, "name": "McDonald's", "name:en": null, "note": null, "opening_hours": null, "opening_hours:drive_through": null, "opening_hours:url": null, "operator": null, "outdoor_seating": null, "phone": null, "ref": null, "roof:colour": null, "roof:shape": null, "smoking": null, "source": null, "takeaway": "yes", "@geometry": null, "big_mac": "5.25" }, "geometry": { "type": "Point", "coordinates": [ -120.8347758, 45.6693673 ] } },
{ "type": "Feature", "properties": { "id": "node/3982005049", "@id": "node/3982005049", "addr:city": null, "addr:country": null, "addr:housenumber": null, "addr:postcode": null, "addr:state": null, "addr:street": null, "addr:unit": null, "amenity": "fast_food", "brand": "McDonald's", "brand:website": null, "brand:wikidata": "Q38076", "brand:wikipedia": "en:McDonald's", "building": null, "building:colour": null, "building:levels": null, "building:part": null, "building:use": null, "check_date": null, "cuisine": "burger", "delivery": "no", "dog": null, "drive_through": "no", "ele": null, "height": null, "indoor_seating": null, "internet_access": null, "internet_access:fee": null, "internet_access:ssid": null, "kids_area": null, "name": "McDonald's", "name:en": null, "note": null, "opening_hours": null, "opening_hours:drive_through": null, "opening_hours:url": null, "operator": null, "outdoor_seating": "no", "phone": null, "ref": null, "roof:colour": null, "roof:shape": null, "smoking": "no", "source": null, "takeaway": "yes", "@geometry": null, "big_mac": "4.79" }, "geometry": { "type": "Point", "coordinates": [ -122.598518, 45.5895748 ] } },
{ "type": "Feature", "properties": { "id": "node/4047804023", "@id": "node/4047804023", "addr:city": null, "addr:country": null, "addr:housenumber": null, "addr:postcode": null, "addr:state": null, "addr:street": null, "addr:unit": null, "amenity": "fast_food", "brand": "McDonald's", "brand:website": null, "brand:wikidata": "Q38076", "brand:wikipedia": "en:McDonald's", "building": null, "building:colour": null, "building:levels": null, "building:part": null, "building:use": null, "check_date": null, "cuisine": "burger", "delivery": null, "dog": null, "drive_through": null, "ele": null, "height": null, "indoor_seating": null, "internet_access": null, "internet_access:fee": null, "internet_access:ssid": null, "kids_area": null, "name": "McDonald's", "name:en": null, "note": null, "opening_hours": null, "opening_hours:drive_through": null, "opening_hours:url": null, "operator": null, "outdoor_seating": null, "phone": null, "ref": null, "roof:colour": null, "roof:shape": null, "smoking": null, "source": null, "takeaway": "yes", "@geometry": null, "big_mac": "5.25" }, "geometry": { "type": "Point", "coordinates": [ -123.3351728, 43.386703 ] } },
{ "type": "Feature", "properties": { "id": "node/4194795329", "@id": "node/4194795329", "addr:city": "Eugene", "addr:country": null, "addr:housenumber": "1580", "addr:postcode": "97401", "addr:state": "OR", "addr:street": "Coburg Road", "addr:unit": null, "amenity": "fast_food", "brand": "McDonald's", "brand:website": null, "brand:wikidata": "Q38076", "brand:wikipedia": "en:McDonald's", "building": null, "building:colour": null, "building:levels": null, "building:part": null, "building:use": null, "check_date": null, "cuisine": "burger", "delivery": null, "dog": null, "drive_through": null, "ele": null, "height": null, "indoor_seating": null, "internet_access": null, "internet_access:fee": null, "internet_access:ssid": null, "kids_area": null, "name": "McDonald's", "name:en": null, "note": null, "opening_hours": null, "opening_hours:drive_through": null, "opening_hours:url": null, "operator": null, "outdoor_seating": null, "phone": null, "ref": null, "roof:colour": null, "roof:shape": null, "smoking": null, "source": null, "takeaway": "yes", "@geometry": null, "big_mac": "5.50" }, "geometry": { "type": "Point", "coordinates": [ -123.069359, 44.0796722 ] } },
{ "type": "Feature", "properties": { "id": "node/4376621190", "@id": "node/4376621190", "addr:city": null, "addr:country": null, "addr:housenumber": null, "addr:postcode": null, "addr:state": null, "addr:street": null, "addr:unit": null, "amenity": "fast_food", "brand": "McDonald's", "brand:website": null, "brand:wikidata": "Q38076", "brand:wikipedia": "en:McDonald's", "building": null, "building:colour": null, "building:levels": null, "building:part": null, "building:use": null, "check_date": null, "cuisine": "burger", "delivery": null, "dog": null, "drive_through": null, "ele": null, "height": null, "indoor_seating": null, "internet_access": "wlan", "internet_access:fee": null, "internet_access:ssid": null, "kids_area": null, "name": "McDonald's", "name:en": "McDonald's", "note": null, "opening_hours": null, "opening_hours:drive_through": null, "opening_hours:url": null, "operator": null, "outdoor_seating": null, "phone": null, "ref": null, "roof:colour": null, "roof:shape": null, "smoking": null, "source": null, "takeaway": "yes", "@geometry": null, "big_mac": "6.50" }, "geometry": { "type": "Point", "coordinates": [ -121.1937693, 44.2689648 ] } },
{ "type": "Feature", "properties": { "id": "node/4960341636", "@id": "node/4960341636", "addr:city": "Bend", "addr:country": null, "addr:housenumber": "20120", "addr:postcode": "97702", "addr:state": "OR", "addr:street": "Pinebrook Boulevard", "addr:unit": null, "amenity": "fast_food", "brand": "McDonald's", "brand:website": "https://www.mcdonalds.com/", "brand:wikidata": "Q38076", "brand:wikipedia": "en:McDonald's", "building": null, "building:colour": null, "building:levels": null, "building:part": null, "building:use": null, "check_date": null, "cuisine": "burger", "delivery": null, "dog": null, "drive_through": null, "ele": null, "height": null, "indoor_seating": null, "internet_access": "wlan", "internet_access:fee": "no", "internet_access:ssid": null, "kids_area": null, "name": "McDonald's", "name:en": null, "note": null, "opening_hours": "06:30-23:00", "opening_hours:drive_through": null, "opening_hours:url": null, "operator": null, "outdoor_seating": null, "phone": "+1-541-389-9929", "ref": null, "roof:colour": null, "roof:shape": null, "smoking": null, "source": null, "takeaway": "yes", "@geometry": null, "big_mac": "6.50" }, "geometry": { "type": "Point", "coordinates": [ -121.3171399, 44.0234533 ] } },
{ "type": "Feature", "properties": { "id": "node/5065842911", "@id": "node/5065842911", "addr:city": "Salem", "addr:country": null, "addr:housenumber": "4020", "addr:postcode": "97302", "addr:state": "OR", "addr:street": "Commercial Street Southeast", "addr:unit": null, "amenity": "fast_food", "brand": "McDonald's", "brand:website": null, "brand:wikidata": "Q38076", "brand:wikipedia": "en:McDonald's", "building": null, "building:colour": null, "building:levels": null, "building:part": null, "building:use": null, "check_date": null, "cuisine": "burger", "delivery": "no", "dog": null, "drive_through": "yes", "ele": null, "height": null, "indoor_seating": null, "internet_access": null, "internet_access:fee": null, "internet_access:ssid": null, "kids_area": null, "name": "McDonald's", "name:en": null, "note": null, "opening_hours": "Su-Th 05:00-23:00; Fr-Sa 05:00-24:00", "opening_hours:drive_through": null, "opening_hours:url": null, "operator": null, "outdoor_seating": "no", "phone": null, "ref": null, "roof:colour": null, "roof:shape": null, "smoking": "outside", "source": null, "takeaway": "yes", "@geometry": null, "big_mac": "4.50" }, "geometry": { "type": "Point", "coordinates": [ -123.0379387, 44.8984199 ] } },
{ "type": "Feature", "properties": { "id": "node/5255326838", "@id": "node/5255326838", "addr:city": null, "addr:country": null, "addr:housenumber": null, "addr:postcode": null, "addr:state": null, "addr:street": null, "addr:unit": null, "amenity": "fast_food", "brand": "McDonald's", "brand:website": null, "brand:wikidata": "Q38076", "brand:wikipedia": "en:McDonald's", "building": null, "building:colour": null, "building:levels": null, "building:part": null, "building:use": null, "check_date": null, "cuisine": "burger", "delivery": null, "dog": null, "drive_through": null, "ele": null, "height": null, "indoor_seating": null, "internet_access": null, "internet_access:fee": null, "internet_access:ssid": null, "kids_area": null, "name": "McDonald's", "name:en": null, "note": null, "opening_hours": null, "opening_hours:drive_through": null, "opening_hours:url": null, "operator": null, "outdoor_seating": null, "phone": null, "ref": null, "roof:colour": null, "roof:shape": null, "smoking": null, "source": null, "takeaway": "yes", "@geometry": null, "big_mac": "5.25" }, "geometry": { "type": "Point", "coordinates": [ -123.3500355, 43.2264328 ] } },
{ "type": "Feature", "properties": { "id": "node/6233195612", "@id": "node/6233195612", "addr:city": "Coos Bay", "addr:country": null, "addr:housenumber": "772", "addr:postcode": "97420", "addr:state": "OR", "addr:street": "South Broadway", "addr:unit": null, "amenity": "fast_food", "brand": "McDonald's", "brand:website": null, "brand:wikidata": "Q38076", "brand:wikipedia": "en:McDonald's", "building": null, "building:colour": null, "building:levels": null, "building:part": null, "building:use": null, "check_date": null, "cuisine": "burger", "delivery": null, "dog": null, "drive_through": "yes", "ele": null, "height": null, "indoor_seating": null, "internet_access": null, "internet_access:fee": null, "internet_access:ssid": null, "kids_area": null, "name": "McDonald's", "name:en": null, "note": null, "opening_hours": null, "opening_hours:drive_through": null, "opening_hours:url": null, "operator": null, "outdoor_seating": null, "phone": null, "ref": null, "roof:colour": null, "roof:shape": null, "smoking": null, "source": null, "takeaway": "yes", "@geometry": null, "big_mac": "5.50" }, "geometry": { "type": "Point", "coordinates": [ -124.2128347, 43.3614129 ] } },
{ "type": "Feature", "properties": { "id": "node/6237320674", "@id": "node/6237320674", "addr:city": "North Bend", "addr:country": null, "addr:housenumber": "3303", "addr:postcode": "97459", "addr:state": "OR", "addr:street": "Broadway Avenue", "addr:unit": null, "amenity": "fast_food", "brand": "McDonald's", "brand:website": null, "brand:wikidata": "Q38076", "brand:wikipedia": "en:McDonald's", "building": null, "building:colour": null, "building:levels": null, "building:part": null, "building:use": null, "check_date": null, "cuisine": "burger", "delivery": null, "dog": null, "drive_through": "yes", "ele": null, "height": null, "indoor_seating": null, "internet_access": "wlan", "internet_access:fee": null, "internet_access:ssid": null, "kids_area": null, "name": "McDonald's", "name:en": null, "note": null, "opening_hours": "Mo-Sa 05:00-23:00, Su 06:00-23:00", "opening_hours:drive_through": null, "opening_hours:url": null, "operator": null, "outdoor_seating": null, "phone": "+1-541-756-6617", "ref": null, "roof:colour": null, "roof:shape": null, "smoking": "outside", "source": null, "takeaway": "yes", "@geometry": null, "big_mac": "5.50" }, "geometry": { "type": "Point", "coordinates": [ -124.238782, 43.3922494 ] } },
{ "type": "Feature", "properties": { "id": "node/6594131476", "@id": "node/6594131476", "addr:city": "Portland", "addr:country": null, "addr:housenumber": "1035", "addr:postcode": "97204", "addr:state": null, "addr:street": "Southwest 6th Avenue", "addr:unit": null, "amenity": "fast_food", "brand": "McDonald's", "brand:website": "https://www.mcdonalds.com/", "brand:wikidata": "Q38076", "brand:wikipedia": "en:McDonald's", "building": null, "building:colour": null, "building:levels": null, "building:part": null, "building:use": null, "check_date": null, "cuisine": "burger", "delivery": null, "dog": null, "drive_through": "no", "ele": null, "height": null, "indoor_seating": null, "internet_access": "wlan", "internet_access:fee": "no", "internet_access:ssid": null, "kids_area": null, "name": "McDonald's", "name:en": null, "note": null, "opening_hours": "Mo-Fr 05:00-23:00; Sa,Su 06:00-23:00", "opening_hours:drive_through": null, "opening_hours:url": null, "operator": null, "outdoor_seating": null, "phone": "+1-503-295-1234", "ref": null, "roof:colour": null, "roof:shape": null, "smoking": null, "source": null, "takeaway": "yes", "@geometry": null, "big_mac": "5.75" }, "geometry": { "type": "Point", "coordinates": [ -122.6802587, 45.5166159 ] } },
{ "type": "Feature", "properties": { "id": "node/6943299885", "@id": "node/6943299885", "addr:city": null, "addr:country": null, "addr:housenumber": null, "addr:postcode": null, "addr:state": null, "addr:street": null, "addr:unit": null, "amenity": "fast_food", "brand": "McDonald's", "brand:website": null, "brand:wikidata": "Q38076", "brand:wikipedia": "en:McDonald's", "building": null, "building:colour": null, "building:levels": null, "building:part": null, "building:use": null, "check_date": null, "cuisine": "burger", "delivery": null, "dog": null, "drive_through": null, "ele": null, "height": null, "indoor_seating": null, "internet_access": null, "internet_access:fee": null, "internet_access:ssid": null, "kids_area": null, "name": "McDonald's", "name:en": null, "note": null, "opening_hours": null, "opening_hours:drive_through": null, "opening_hours:url": null, "operator": null, "outdoor_seating": null, "phone": null, "ref": null, "roof:colour": null, "roof:shape": null, "smoking": null, "source": null, "takeaway": "yes", "@geometry": null, "big_mac": "6.50" }, "geometry": { "type": "Point", "coordinates": [ -121.1711459, 44.2924265 ] } },
{ "type": "Feature", "properties": { "id": "node/7349896867", "@id": "node/7349896867", "addr:city": null, "addr:country": null, "addr:housenumber": null, "addr:postcode": null, "addr:state": null, "addr:street": null, "addr:unit": null, "amenity": "fast_food", "brand": "McDonald's", "brand:website": null, "brand:wikidata": "Q38076", "brand:wikipedia": "en:McDonald's", "building": null, "building:colour": null, "building:levels": null, "building:part": null, "building:use": null, "check_date": null, "cuisine": "burger", "delivery": null, "dog": null, "drive_through": null, "ele": null, "height": null, "indoor_seating": null, "internet_access": null, "internet_access:fee": null, "internet_access:ssid": null, "kids_area": null, "name": "McDonald's", "name:en": null, "note": null, "opening_hours": null, "opening_hours:drive_through": null, "opening_hours:url": null, "operator": null, "outdoor_seating": null, "phone": null, "ref": null, "roof:colour": null, "roof:shape": null, "smoking": null, "source": null, "takeaway": "yes", "@geometry": null, "big_mac": "4.80" }, "geometry": { "type": "Point", "coordinates": [ -123.3022492, 42.4347126 ] } },
{ "type": "Feature", "properties": { "id": "node/7357854145", "@id": "node/7357854145", "addr:city": null, "addr:country": null, "addr:housenumber": null, "addr:postcode": null, "addr:state": null, "addr:street": null, "addr:unit": null, "amenity": "fast_food", "brand": "McDonald's", "brand:website": null, "brand:wikidata": "Q38076", "brand:wikipedia": "en:McDonald's", "building": null, "building:colour": null, "building:levels": null, "building:part": null, "building:use": null, "check_date": null, "cuisine": "burger", "delivery": null, "dog": null, "drive_through": null, "ele": null, "height": null, "indoor_seating": null, "internet_access": null, "internet_access:fee": null, "internet_access:ssid": null, "kids_area": null, "name": "McDonald's", "name:en": null, "note": null, "opening_hours": null, "opening_hours:drive_through": null, "opening_hours:url": null, "operator": null, "outdoor_seating": null, "phone": null, "ref": null, "roof:colour": null, "roof:shape": null, "smoking": null, "source": null, "takeaway": "yes", "@geometry": null, "big_mac": "5.50" }, "geometry": { "type": "Point", "coordinates": [ -124.252293, 43.3899705 ] } },
{ "type": "Feature", "properties": { "id": "node/7819278307", "@id": "node/7819278307", "addr:city": null, "addr:country": null, "addr:housenumber": null, "addr:postcode": null, "addr:state": null, "addr:street": null, "addr:unit": null, "amenity": "fast_food", "brand": "McDonald's", "brand:website": null, "brand:wikidata": "Q38076", "brand:wikipedia": "en:McDonald's", "building": null, "building:colour": null, "building:levels": null, "building:part": null, "building:use": null, "check_date": null, "cuisine": "burger", "delivery": null, "dog": null, "drive_through": null, "ele": null, "height": null, "indoor_seating": null, "internet_access": null, "internet_access:fee": null, "internet_access:ssid": null, "kids_area": null, "name": "McDonald's", "name:en": null, "note": null, "opening_hours": null, "opening_hours:drive_through": null, "opening_hours:url": null, "operator": null, "outdoor_seating": null, "phone": null, "ref": null, "roof:colour": null, "roof:shape": null, "smoking": null, "source": null, "takeaway": "yes", "@geometry": null, "big_mac": "4.50" }, "geometry": { "type": "Point", "coordinates": [ -122.9866878, 44.9650053 ] } },
{ "type": "Feature", "properties": { "id": "node/7819302538", "@id": "node/7819302538", "addr:city": null, "addr:country": null, "addr:housenumber": null, "addr:postcode": null, "addr:state": null, "addr:street": null, "addr:unit": null, "amenity": "fast_food", "brand": "McDonald's", "brand:website": null, "brand:wikidata": "Q38076", "brand:wikipedia": "en:McDonald's", "building": null, "building:colour": null, "building:levels": null, "building:part": null, "building:use": null, "check_date": null, "cuisine": "burger", "delivery": null, "dog": null, "drive_through": null, "ele": null, "height": null, "indoor_seating": null, "internet_access": null, "internet_access:fee": null, "internet_access:ssid": null, "kids_area": null, "name": "McDonald's", "name:en": null, "note": null, "opening_hours": null, "opening_hours:drive_through": null, "opening_hours:url": null, "operator": null, "outdoor_seating": null, "phone": null, "ref": null, "roof:colour": null, "roof:shape": null, "smoking": null, "source": null, "takeaway": "yes", "@geometry": null, "big_mac": "4.99" }, "geometry": { "type": "Point", "coordinates": [ -122.880575, 45.1477399 ] } },
{ "type": "Feature", "properties": { "id": "node/8379896194", "@id": "node/8379896194", "addr:city": null, "addr:country": null, "addr:housenumber": null, "addr:postcode": null, "addr:state": null, "addr:street": null, "addr:unit": null, "amenity": "fast_food", "brand": "McDonald's", "brand:website": null, "brand:wikidata": "Q38076", "brand:wikipedia": "en:McDonald's", "building": null, "building:colour": null, "building:levels": null, "building:part": null, "building:use": null, "check_date": null, "cuisine": "burger", "delivery": null, "dog": null, "drive_through": "yes", "ele": null, "height": null, "indoor_seating": null, "internet_access": null, "internet_access:fee": null, "internet_access:ssid": null, "kids_area": null, "name": "McDonald's", "name:en": null, "note": null, "opening_hours": null, "opening_hours:drive_through": null, "opening_hours:url": null, "operator": null, "outdoor_seating": null, "phone": null, "ref": null, "roof:colour": null, "roof:shape": null, "smoking": null, "source": null, "takeaway": "yes", "@geometry": null, "big_mac": "4.50" }, "geometry": { "type": "Point", "coordinates": [ -123.0261048, 44.9943904 ] } },
{ "type": "Feature", "properties": { "id": "node/10572005853", "@id": "node/10572005853", "addr:city": null, "addr:country": null, "addr:housenumber": null, "addr:postcode": null, "addr:state": null, "addr:street": null, "addr:unit": null, "amenity": "fast_food", "brand": "McDonald's", "brand:website": null, "brand:wikidata": "Q38076", "brand:wikipedia": null, "building": null, "building:colour": null, "building:levels": null, "building:part": null, "building:use": null, "check_date": null, "cuisine": "burger", "delivery": null, "dog": null, "drive_through": null, "ele": null, "height": null, "indoor_seating": null, "internet_access": null, "internet_access:fee": null, "internet_access:ssid": null, "kids_area": null, "name": "McDonald's", "name:en": null, "note": null, "opening_hours": null, "opening_hours:drive_through": null, "opening_hours:url": null, "operator": null, "outdoor_seating": null, "phone": null, "ref": null, "roof:colour": null, "roof:shape": null, "smoking": null, "source": null, "takeaway": "yes", "@geometry": null, "big_mac": "4.99" }, "geometry": { "type": "Point", "coordinates": [ -122.836309, 45.1510205 ] } },
{ "type": "Feature", "properties": { "id": "node/10879611367", "@id": "node/10879611367", "addr:city": null, "addr:country": null, "addr:housenumber": "91027", "addr:postcode": null, "addr:state": null, "addr:street": "Coburg Industrial Way", "addr:unit": null, "amenity": "fast_food", "brand": "McDonald's", "brand:website": null, "brand:wikidata": "Q38076", "brand:wikipedia": "en:McDonald's", "building": null, "building:colour": null, "building:levels": null, "building:part": null, "building:use": null, "check_date": null, "cuisine": "burger", "delivery": null, "dog": null, "drive_through": null, "ele": null, "height": null, "indoor_seating": null, "internet_access": null, "internet_access:fee": null, "internet_access:ssid": null, "kids_area": null, "name": "McDonald's", "name:en": null, "note": null, "opening_hours": null, "opening_hours:drive_through": null, "opening_hours:url": null, "operator": null, "outdoor_seating": null, "phone": null, "ref": null, "roof:colour": null, "roof:shape": null, "smoking": null, "source": null, "takeaway": "yes", "@geometry": null, "big_mac": "5.50" }, "geometry": { "type": "Point", "coordinates": [ -123.0561484, 44.1366258 ] } },
{ "type": "Feature", "properties": { "id": "node/11096750231", "@id": "node/11096750231", "addr:city": null, "addr:country": null, "addr:housenumber": null, "addr:postcode": null, "addr:state": null, "addr:street": null, "addr:unit": null, "amenity": "fast_food", "brand": "McDonald's", "brand:website": null, "brand:wikidata": "Q38076", "brand:wikipedia": "en:McDonald's", "building": null, "building:colour": null, "building:levels": null, "building:part": null, "building:use": null, "check_date": null, "cuisine": "burger", "delivery": null, "dog": null, "drive_through": null, "ele": null, "height": null, "indoor_seating": null, "internet_access": null, "internet_access:fee": null, "internet_access:ssid": null, "kids_area": null, "name": "McDonald's", "name:en": null, "note": null, "opening_hours": null, "opening_hours:drive_through": null, "opening_hours:url": null, "operator": null, "outdoor_seating": null, "phone": null, "ref": null, "roof:colour": null, "roof:shape": null, "smoking": null, "source": null, "takeaway": "yes", "@geometry": null, "big_mac": "4.80" }, "geometry": { "type": "Point", "coordinates": [ -123.353349, 42.4206251 ] } }
]
}
